{"type":"FeatureCollection","bbox":[173.89663,-37.36345,175.9033,-35.69848],"features":[{"type":"Feature","properties":{},"geometry":{"type":"MultiLineString","coordinates":[[[175.08383,-35.69983],[175.09081,-35.70065]],[[175.09081,-35.70065],[175.09899,-35.69993]],[[175.09899,-35.69993],[175.10745,-35.69953]],[[175.10745,-35.69953],[175.11612,-35.69936]],[[175.11612,-35.69936],[175.12239,-35.69946]],[[175.12239,-35.69946],[175.12984,-35.6997]],[[175.12984,-35.6997],[175.1435,-35.70044]],[[175.1435,-35.70044],[175.15387,-35.70158]],[[175.15387,-35.70158],[175.16424,-35.703]],[[175.16424,-35.703],[175.17324,-35.70456]],[[175.17324,-35.70456],[175.18121,-35.70614]],[[175.18121,-35.70614],[175.18683,-35.70742]],[[175.18683,-35.70742],[175.1935,-35.70908]],[[175.1935,-35.70908],[175.20184,-35.71144]],[[175.20184,-35.71144],[175.20907,-35.71365]],[[175.20907,-35.71365],[175.21666,-35.71625]],[[175.21666,-35.71625],[175.22447,-35.71923]],[[175.22447,-35.71923],[175.23299,-35.72265]],[[175.23299,-35.72265],[175.24082,-35.72619]],[[175.24082,-35.72619],[175.24677,-35.72921]],[[175.24677,-35.72921],[175.25346,-35.73269]],[[175.25346,-35.73269],[175.25865,-35.73551]],[[175.25865,-35.73551],[175.26553,-35.73966]],[[175.26553,-35.73966],[175.26935,-35.74202]],[[175.26935,-35.74202],[175.2724,-35.74398]],[[175.2724,-35.74398],[175.27903,-35.74662]],[[175.27903,-35.74662],[175.28906,-35.75128]],[[175.28906,-35.75128],[175.29766,-35.75555]],[[175.29766,-35.75555],[175.30627,-35.76006]],[[175.30627,-35.76006],[175.31338,-35.76437]],[[175.31338,-35.76437],[175.31846,-35.76768]],[[175.31846,-35.76768],[175.32311,-35.77065]],[[175.32311,-35.77065],[175.33274,-35.77774]],[[175.33274,-35.77774],[175.33697,-35.78101]],[[175.33697,-35.78101],[175.3418,-35.78514]],[[175.3418,-35.78514],[175.3467,-35.78926]],[[175.3467,-35.78926],[175.35618,-35.79821]],[[175.35618,-35.79821],[175.36135,-35.80378]],[[175.36135,-35.80378],[175.366,-35.80895]],[[175.366,-35.80895],[175.37016,-35.81413]],[[175.37016,-35.81413],[175.37409,-35.81891]],[[175.37409,-35.81891],[175.37886,-35.82524]],[[175.37886,-35.82524],[175.3861,-35.82467]],[[175.3861,-35.82467],[175.39605,-35.82404]],[[175.39605,-35.82404],[175.40423,-35.82386]],[[175.40423,-35.82386],[175.4142,-35.82404]],[[175.4142,-35.82404],[175.42296,-35.82424]],[[175.42296,-35.82424],[175.43166,-35.82486]],[[175.43166,-35.82486],[175.43816,-35.82529]],[[175.43816,-35.82529],[175.44824,-35.82651]],[[175.44824,-35.82651],[175.46176,-35.82863]],[[175.46176,-35.82863],[175.4723,-35.83082]],[[175.4723,-35.83082],[175.48487,-35.83377]],[[175.48487,-35.83377],[175.49443,-35.83639]],[[175.49443,-35.83639],[175.50264,-35.8391]],[[175.50264,-35.8391],[175.51374,-35.84307]],[[175.51374,-35.84307],[175.52458,-35.84751]],[[175.52458,-35.84751],[175.53348,-35.85153]],[[175.53348,-35.85153],[175.54233,-35.85601]],[[175.54233,-35.85601],[175.54946,-35.86007]],[[175.54946,-35.86007],[175.55585,-35.86357]],[[175.55585,-35.86357],[175.5641,-35.86894]],[[175.5641,-35.86894],[175.57081,-35.87347]],[[175.57081,-35.87347],[175.58151,-35.88168]],[[175.58151,-35.88168],[175.58901,-35.88799]],[[175.58901,-35.88799],[175.59439,-35.89273]],[[175.59439,-35.89273],[175.59986,-35.8981]],[[175.59986,-35.8981],[175.60593,-35.90428]],[[175.60593,-35.90428],[175.6119,-35.91143]],[[175.6119,-35.91143],[175.61762,-35.91779]],[[175.61762,-35.91779],[175.62158,-35.92279]],[[175.62158,-35.92279],[175.62606,-35.92819]],[[175.62606,-35.92819],[175.62945,-35.93315]],[[175.62945,-35.93315],[175.63261,-35.93754]],[[175.63261,-35.93754],[175.63564,-35.94233]],[[175.63564,-35.94233],[175.63884,-35.94759]],[[175.63884,-35.94759],[175.64595,-35.95083]],[[175.64595,-35.95083],[175.65562,-35.95587]],[[175.65562,-35.95587],[175.66503,-35.96149]],[[175.66503,-35.96149],[175.67351,-35.96679]],[[175.67351,-35.96679],[175.68069,-35.97188]],[[175.68069,-35.97188],[175.68752,-35.97699]],[[175.68752,-35.97699],[175.6965,-35.9843]],[[175.6965,-35.9843],[175.70404,-35.99101]],[[175.70404,-35.99101],[175.71205,-35.99892]],[[175.71205,-35.99892],[175.71726,-36.00465]],[[175.71726,-36.00465],[175.72176,-36.01004]],[[175.72176,-36.01004],[175.72783,-36.0176]],[[175.72783,-36.0176],[175.73364,-36.02574]],[[175.73364,-36.02574],[175.73821,-36.03317]],[[175.73821,-36.03317],[175.74218,-36.03979]],[[175.74218,-36.03979],[175.74551,-36.0462]],[[175.74551,-36.0462],[175.7493,-36.05382]],[[175.7493,-36.05382],[175.75239,-36.06145]],[[175.75239,-36.06145],[175.75544,-36.07007]],[[175.75544,-36.07007],[175.75773,-36.07755]],[[175.75773,-36.07755],[175.75923,-36.08296]],[[175.75923,-36.08296],[175.76091,-36.09127]],[[175.76091,-36.09127],[175.76258,-36.10097]],[[175.76258,-36.10097],[175.76335,-36.10971]],[[175.76335,-36.10971],[175.76398,-36.11839]],[[175.76398,-36.11839],[175.76424,-36.12494]],[[175.76424,-36.12494],[175.76435,-36.13323]],[[175.76435,-36.13323],[175.76382,-36.14357]],[[175.76382,-36.14357],[175.76327,-36.1495]],[[175.76327,-36.1495],[175.76234,-36.15666]],[[175.76234,-36.15666],[175.76128,-36.16254]],[[175.76128,-36.16254],[175.75897,-36.17299]],[[175.75897,-36.17299],[175.75719,-36.17872]],[[175.75719,-36.17872],[175.75496,-36.18568]],[[175.75496,-36.18568],[175.75867,-36.19086]],[[175.75867,-36.19086],[175.76346,-36.19804]],[[175.76346,-36.19804],[175.76744,-36.20461]],[[175.76744,-36.20461],[175.77215,-36.21331]],[[175.77215,-36.21331],[175.77543,-36.22013]],[[175.77543,-36.22013],[175.77896,-36.22798]],[[175.77896,-36.22798],[175.78829,-36.22849]],[[175.78829,-36.22849],[175.79834,-36.2291]],[[175.79834,-36.2291],[175.80841,-36.23023]],[[175.80841,-36.23023],[175.81467,-36.23105]],[[175.81467,-36.23105],[175.82202,-36.23231]],[[175.82202,-36.23231],[175.83118,-36.23392]],[[175.83118,-36.23392],[175.84303,-36.23662]],[[175.84303,-36.23662],[175.8549,-36.23973]],[[175.8549,-36.23973],[175.86433,-36.24255]],[[175.86433,-36.24255],[175.87166,-36.24497]],[[175.87166,-36.24497],[175.87704,-36.24685]],[[175.87704,-36.24685],[175.88403,-36.24963]],[[175.88403,-36.24963],[175.89242,-36.25317]],[[175.89242,-36.25317],[175.89812,-36.25576]],[[175.89812,-36.25576],[175.9033,-36.25828]],[[175.9033,-36.25828],[175.62812,-36.38503]],[[175.62812,-36.38503],[175.54352,-36.38303]],[[175.54352,-36.38303],[175.44639,-36.38066]],[[175.44639,-36.38066],[175.41692,-36.37989]],[[175.41692,-36.37989],[175.25102,-36.39972]],[[175.25102,-36.39972],[175.18066,-36.49998]],[[175.18066,-36.49998],[175.16308,-36.52393]],[[175.16308,-36.52393],[175.20389,-36.59493]],[[175.20389,-36.59493],[175.26664,-36.70384]],[[175.26664,-36.70384],[175.28957,-36.76811]],[[175.28957,-36.76811],[175.31101,-36.83838]],[[175.31101,-36.83838],[175.36154,-36.93033]],[[175.36154,-36.93033],[175.37932,-36.96263]],[[175.37932,-36.96263],[175.38431,-36.99437]],[[175.38431,-36.99437],[175.38865,-37.0219]],[[175.38865,-37.0219],[175.2913,-37.02404]],[[174.61664,-36.11756],[174.61678,-36.1175]],[[174.61678,-36.1175],[174.69199,-36.06745]],[[174.69199,-36.06745],[174.78256,-36.00708]],[[174.78256,-36.00708],[174.793,-35.99899]],[[174.793,-35.99899],[174.79747,-35.99548]],[[174.79747,-35.99548],[174.80001,-35.99347]],[[174.80001,-35.99347],[174.80221,-35.99169]],[[174.80221,-35.99169],[174.80432,-35.98996]],[[174.80432,-35.98996],[174.80632,-35.98828]],[[174.80632,-35.98828],[174.80816,-35.98672]],[[174.80816,-35.98672],[174.81013,-35.98501]],[[174.81013,-35.98501],[174.81156,-35.98373]],[[174.81156,-35.98373],[174.8131,-35.98232]],[[174.8131,-35.98232],[174.815,-35.98055]],[[174.815,-35.98055],[174.81694,-35.9787]],[[174.81694,-35.9787],[174.81915,-35.97656]],[[174.81915,-35.97656],[174.82156,-35.97421]],[[174.82156,-35.97421],[174.82979,-35.96605]],[[174.82979,-35.96605],[174.8482,-35.94234]],[[174.8482,-35.94234],[174.85287,-35.93619]],[[174.85287,-35.93619],[174.85745,-35.93001]],[[174.85745,-35.93001],[174.86191,-35.92378]],[[174.86191,-35.92378],[174.86567,-35.91828]],[[174.86567,-35.91828],[174.86776,-35.91511]],[[174.86776,-35.91511],[174.86929,-35.91272]],[[174.86929,-35.91272],[174.87128,-35.90952]],[[174.87128,-35.90952],[174.87274,-35.9071]],[[174.87274,-35.9071],[174.87709,-35.89959]],[[174.87709,-35.89959],[174.87891,-35.8963]],[[174.87891,-35.8963],[174.88068,-35.89299]],[[174.88068,-35.89299],[174.8824,-35.88966]],[[174.8824,-35.88966],[174.88407,-35.88632]],[[174.88407,-35.88632],[174.88569,-35.88295]],[[174.88569,-35.88295],[174.88726,-35.87957]],[[174.88726,-35.87957],[174.88878,-35.87618]],[[174.88878,-35.87618],[174.89025,-35.87277]],[[174.89025,-35.87277],[174.89167,-35.86934]],[[174.89167,-35.86934],[174.89304,-35.8659]],[[174.89304,-35.8659],[174.89444,-35.86224]],[[174.89444,-35.86224],[174.89563,-35.85899]],[[174.89563,-35.85899],[174.89685,-35.85551]],[[174.89685,-35.85551],[174.8983,-35.85115]],[[174.8983,-35.85115],[174.89994,-35.8459]],[[174.89994,-35.8459],[174.90122,-35.84151]],[[174.90122,-35.84151],[174.90274,-35.8366]],[[174.90274,-35.8366],[174.90401,-35.83221]],[[174.90401,-35.83221],[174.90473,-35.82957]],[[174.90473,-35.82957],[174.90565,-35.82604]],[[174.90565,-35.82604],[174.90651,-35.8225]],[[174.90651,-35.8225],[174.90732,-35.81895]],[[174.90732,-35.81895],[174.90807,-35.81539]],[[174.90807,-35.81539],[174.90877,-35.81183]],[[174.90877,-35.81183],[174.90941,-35.80825]],[[174.90941,-35.80825],[174.91015,-35.80378]],[[174.91015,-35.80378],[174.91067,-35.8002]],[[174.91067,-35.8002],[174.91114,-35.79661]],[[174.91114,-35.79661],[174.91172,-35.79172]],[[174.91172,-35.79172],[174.91209,-35.78813]],[[174.91209,-35.78813],[174.9124,-35.78454]],[[174.9124,-35.78454],[174.91271,-35.78005]],[[174.91271,-35.78005],[174.91295,-35.77555]],[[174.91295,-35.77555],[174.91315,-35.77015]],[[174.91315,-35.77015],[174.91337,-35.76022]],[[174.91337,-35.76022],[174.91365,-35.74037]],[[174.91365,-35.74037],[174.91366,-35.73586]],[[174.91366,-35.73586],[174.91362,-35.73316]],[[174.91362,-35.73316],[174.91352,-35.73045]],[[174.91352,-35.73045],[174.91335,-35.72775]],[[174.91335,-35.72775],[174.91319,-35.72605]],[[174.91319,-35.72605],[174.913,-35.72426]],[[174.913,-35.72426],[174.91264,-35.72157]],[[174.91264,-35.72157],[174.91138,-35.71328]],[[174.91138,-35.71328],[174.91641,-35.71581]],[[174.91641,-35.71581],[174.92263,-35.71916]],[[174.92263,-35.71916],[174.92704,-35.72167]],[[174.92704,-35.72167],[174.93202,-35.72472]],[[174.93202,-35.72472],[174.93583,-35.72302]],[[174.93583,-35.72302],[174.94319,-35.71997]],[[174.94319,-35.71997],[174.95293,-35.71608]],[[174.95293,-35.71608],[174.96228,-35.71293]],[[174.96228,-35.71293],[174.97157,-35.71001]],[[174.97157,-35.71001],[174.981,-35.70747]],[[174.981,-35.70747],[174.98702,-35.70601]],[[174.98702,-35.70601],[174.99462,-35.70429]],[[174.99462,-35.70429],[175.00737,-35.70203]],[[175.00737,-35.70203],[175.01986,-35.70028]],[[175.01986,-35.70028],[175.02899,-35.69949]],[[175.02899,-35.69949],[175.0391,-35.69873]],[[175.0391,-35.69873],[175.04928,-35.69848]],[[175.04928,-35.69848],[175.05886,-35.69852]],[[175.05886,-35.69852],[175.06692,-35.69859]],[[175.06692,-35.69859],[175.0763,-35.69919]],[[175.0763,-35.69919],[175.08383,-35.69983]],[[174.65963,-37.29243],[174.65923,-37.29262]],[[174.65923,-37.29262],[174.4256,-37.36345]],[[174.4256,-37.36345],[174.42274,-37.35925]],[[174.42274,-37.35925],[174.42082,-37.3562]],[[174.42082,-37.3562],[174.4158,-37.34777]],[[174.4158,-37.34777],[174.41294,-37.34229]],[[174.41294,-37.34229],[174.40962,-37.33547]],[[174.40962,-37.33547],[174.40733,-37.32998]],[[174.40733,-37.32998],[174.40428,-37.32568]],[[174.40428,-37.32568],[174.40223,-37.32217]],[[174.40223,-37.32217],[174.39917,-37.31708]],[[174.39917,-37.31708],[174.39763,-37.31418]],[[174.39763,-37.31418],[174.39427,-37.30814]],[[174.39427,-37.30814],[174.39148,-37.30249]],[[174.39148,-37.30249],[174.38889,-37.29661]],[[174.38889,-37.29661],[174.38681,-37.29112]],[[174.38681,-37.29112],[174.38524,-37.28641]],[[174.38524,-37.28641],[174.38219,-37.28173]],[[174.38219,-37.28173],[174.37845,-37.27457]],[[174.37845,-37.27457],[174.37361,-37.26849]],[[174.37361,-37.26849],[174.36906,-37.2627]],[[174.36906,-37.2627],[174.36573,-37.25835]],[[174.36573,-37.25835],[174.36145,-37.25193]],[[174.36145,-37.25193],[174.35658,-37.24411]],[[174.35658,-37.24411],[174.35248,-37.23606]],[[174.35248,-37.23606],[174.3497,-37.23041]],[[174.3497,-37.23041],[174.34831,-37.22767]],[[174.34831,-37.22767],[174.34534,-37.2236]],[[174.34534,-37.2236],[174.34223,-37.21891]],[[174.34223,-37.21891],[174.33925,-37.21422]],[[174.33925,-37.21422],[174.3315,-37.20998]],[[174.3315,-37.20998],[174.32281,-37.20457]],[[174.32281,-37.20457],[174.31454,-37.19915]],[[174.31454,-37.19915],[174.30705,-37.19356]],[[174.30705,-37.19356],[174.30134,-37.1889]],[[174.30134,-37.1889],[174.29404,-37.18252]],[[174.29404,-37.18252],[174.28775,-37.17685]],[[174.28775,-37.17685],[174.28151,-37.17062]],[[174.28151,-37.17062],[174.27498,-37.16344]],[[174.27498,-37.16344],[174.26955,-37.157]],[[174.26955,-37.157],[174.26703,-37.15371]],[[174.26703,-37.15371],[174.26501,-37.15098]],[[174.26501,-37.15098],[174.26238,-37.14726]],[[174.26238,-37.14726],[174.25823,-37.14121]],[[174.25823,-37.14121],[174.2549,-37.1359]],[[174.2549,-37.1359],[174.25252,-37.13185]],[[174.25252,-37.13185],[174.25014,-37.12732]],[[174.25014,-37.12732],[174.24628,-37.11982]],[[174.24628,-37.11982],[174.24423,-37.11517]],[[174.24423,-37.11517],[174.24218,-37.11064]],[[174.24218,-37.11064],[174.23988,-37.10419]],[[174.23988,-37.10419],[174.23752,-37.09747]],[[174.23752,-37.09747],[174.23436,-37.08574]],[[174.23436,-37.08574],[174.23297,-37.079]],[[174.23297,-37.079],[174.23186,-37.07193]],[[174.23186,-37.07193],[174.23074,-37.06389]],[[174.23074,-37.06389],[174.23025,-37.05633]],[[174.23025,-37.05633],[174.23013,-37.04931]],[[174.23013,-37.04931],[174.22746,-37.04101]],[[174.22746,-37.04101],[174.22567,-37.03495]],[[174.22567,-37.03495],[174.22408,-37.0285]],[[174.22408,-37.0285],[174.223,-37.0226]],[[174.223,-37.0226],[174.22047,-37.01571]],[[174.22047,-37.01571],[174.21874,-37.01]],[[174.21874,-37.01],[174.21714,-37.00467]],[[174.21714,-37.00467],[174.21555,-36.99799]],[[174.21555,-36.99799],[174.21329,-36.99295]],[[174.21329,-36.99295],[174.21073,-36.98685]],[[174.21073,-36.98685],[174.20866,-36.98119]],[[174.20866,-36.98119],[174.2066,-36.97525]],[[174.2066,-36.97525],[174.2045,-36.96779]],[[174.2045,-36.96779],[174.20218,-36.96314]],[[174.20218,-36.96314],[174.19956,-36.95771]],[[174.19956,-36.95771],[174.19708,-36.95183]],[[174.19708,-36.95183],[174.19524,-36.94696]],[[174.19524,-36.94696],[174.19369,-36.94242]],[[174.19369,-36.94242],[174.19162,-36.93614]],[[174.19162,-36.93614],[174.19034,-36.93126]],[[174.19034,-36.93126],[174.18849,-36.92537]],[[174.18849,-36.92537],[174.18655,-36.91853]],[[174.18655,-36.91853],[174.18474,-36.91106]],[[174.18474,-36.91106],[174.18169,-36.9044]],[[174.18169,-36.9044],[174.17858,-36.89699]],[[174.17858,-36.89699],[174.17631,-36.89074]],[[174.17631,-36.89074],[174.17446,-36.8852]],[[174.17446,-36.8852],[174.17292,-36.87948]],[[174.17292,-36.87948],[174.17161,-36.87386]],[[174.17161,-36.87386],[174.17024,-36.86718]],[[174.17024,-36.86718],[174.16316,-36.8582]],[[174.16316,-36.8582],[174.15865,-36.85212]],[[174.15865,-36.85212],[174.15542,-36.84765]],[[174.15542,-36.84765],[174.15509,-36.84712]],[[174.15509,-36.84712],[174.15211,-36.84234]],[[174.15211,-36.84234],[174.14909,-36.83709]],[[174.14909,-36.83709],[174.14627,-36.8316]],[[174.14627,-36.8316],[174.14302,-36.82573]],[[174.14302,-36.82573],[174.14137,-36.8232]],[[174.14137,-36.8232],[174.14074,-36.82215]],[[174.14074,-36.82215],[174.13177,-36.81257]],[[174.13177,-36.81257],[174.12778,-36.80805]],[[174.12778,-36.80805],[174.12406,-36.80342]],[[174.12406,-36.80342],[174.12006,-36.79812]],[[174.12006,-36.79812],[174.11555,-36.79186]],[[174.11555,-36.79186],[174.11225,-36.78655]],[[174.11225,-36.78655],[174.10873,-36.78074]],[[174.10873,-36.78074],[174.10643,-36.77683]],[[174.10643,-36.77683],[174.10333,-36.77073]],[[174.10333,-36.77073],[174.09933,-36.76525]],[[174.09933,-36.76525],[174.09532,-36.75961]],[[174.09532,-36.75961],[174.09059,-36.75218]],[[174.09059,-36.75218],[174.08779,-36.74709]],[[174.08779,-36.74709],[174.08203,-36.74124]],[[174.08203,-36.74124],[174.07805,-36.73656]],[[174.07805,-36.73656],[174.07377,-36.73131]],[[174.07377,-36.73131],[174.07035,-36.72685]],[[174.07035,-36.72685],[174.06678,-36.72193]],[[174.06678,-36.72193],[174.06307,-36.71646]],[[174.06307,-36.71646],[174.05934,-36.71019]],[[174.05934,-36.71019],[174.05375,-36.70552]],[[174.05375,-36.70552],[174.04723,-36.69945]],[[174.04723,-36.69945],[174.04156,-36.694]],[[174.04156,-36.694],[174.03631,-36.68837]],[[174.03631,-36.68837],[174.03084,-36.68212]],[[174.03084,-36.68212],[174.02586,-36.67587]],[[174.02586,-36.67587],[174.01842,-36.66885]],[[174.01842,-36.66885],[174.00984,-36.65971]],[[174.00984,-36.65971],[174.00466,-36.65363]],[[174.00466,-36.65363],[173.9994,-36.64698]],[[173.9994,-36.64698],[173.99391,-36.63899]],[[173.99391,-36.63899],[173.98132,-36.6269]],[[173.98132,-36.6269],[173.97636,-36.62143]],[[173.97636,-36.62143],[173.97125,-36.61563]],[[173.97125,-36.61563],[173.96756,-36.61055]],[[173.96756,-36.61055],[173.96115,-36.60627]],[[173.96115,-36.60627],[173.95248,-36.60005]],[[173.95248,-36.60005],[173.94339,-36.59327]],[[173.94339,-36.59327],[173.93227,-36.5851]],[[173.93227,-36.5851],[173.92022,-36.57615]],[[173.92022,-36.57615],[173.89663,-36.55851]],[[173.89663,-36.55851],[174.12296,-36.43514]],[[174.12296,-36.43514],[174.12612,-36.43362]],[[174.12612,-36.43362],[174.1332,-36.43034]],[[174.1332,-36.43034],[174.1419,-36.42616]],[[174.1419,-36.42616],[174.14575,-36.42427]],[[174.14575,-36.42427],[174.15471,-36.41973]],[[174.15471,-36.41973],[174.15842,-36.41792]],[[174.15842,-36.41792],[174.1631,-36.41583]],[[174.1631,-36.41583],[174.17315,-36.41153]],[[174.17315,-36.41153],[174.17807,-36.40952]],[[174.17807,-36.40952],[174.18057,-36.40847]],[[174.18057,-36.40847],[174.18257,-36.40758]],[[174.18257,-36.40758],[174.18442,-36.40671]],[[174.18442,-36.40671],[174.18589,-36.40597]],[[174.18589,-36.40597],[174.18734,-36.4052]],[[174.18734,-36.4052],[174.18853,-36.40451]],[[174.18853,-36.40451],[174.1902,-36.40349]],[[174.1902,-36.40349],[174.19307,-36.40157]],[[174.19307,-36.40157],[174.1937,-36.40104]],[[174.1937,-36.40104],[174.19427,-36.40044]],[[174.19427,-36.40044],[174.19489,-36.39959]],[[174.19489,-36.39959],[174.19535,-36.39881]],[[174.19535,-36.39881],[174.19608,-36.39729]],[[174.19608,-36.39729],[174.19744,-36.39458]],[[174.19744,-36.39458],[174.19995,-36.38976]],[[174.19995,-36.38976],[174.20061,-36.38838]],[[174.20061,-36.38838],[174.20124,-36.38695]],[[174.20124,-36.38695],[174.20187,-36.38541]],[[174.20187,-36.38541],[174.20251,-36.38376]],[[174.20251,-36.38376],[174.20388,-36.37988]],[[174.20388,-36.37988],[174.20481,-36.37695]],[[174.20481,-36.37695],[174.20558,-36.37432]],[[174.20558,-36.37432],[174.20858,-36.36361]],[[174.20858,-36.36361],[174.20944,-36.36066]],[[174.20944,-36.36066],[174.2102,-36.35826]],[[174.2102,-36.35826],[174.21139,-36.35463]],[[174.21139,-36.35463],[174.21249,-36.35151]],[[174.21249,-36.35151],[174.21367,-36.34841]],[[174.21367,-36.34841],[174.21486,-36.34554]],[[174.21486,-36.34554],[174.21576,-36.3435]],[[174.21576,-36.3435],[174.21655,-36.34184]],[[174.21655,-36.34184],[174.2203,-36.33443]],[[174.2203,-36.33443],[174.22182,-36.33119]],[[174.22182,-36.33119],[174.22332,-36.32784]],[[174.22332,-36.32784],[174.225,-36.32396]],[[174.225,-36.32396],[174.23038,-36.31112]],[[174.23038,-36.31112],[174.2314,-36.30894]],[[174.2314,-36.30894],[174.23341,-36.30501]],[[174.23341,-36.30501],[174.23355,-36.30475]],[[174.23355,-36.30475],[174.23505,-36.30139]],[[174.23505,-36.30139],[174.23551,-36.3005]],[[174.23551,-36.3005],[174.23636,-36.29903]],[[174.23636,-36.29903],[174.23673,-36.29844]],[[174.23673,-36.29844],[174.23707,-36.29798]],[[174.23707,-36.29798],[174.23753,-36.29745]],[[174.23753,-36.29745],[174.23809,-36.29696]],[[174.23809,-36.29696],[174.23858,-36.29659]],[[174.23858,-36.29659],[174.23912,-36.29626]],[[174.23912,-36.29626],[174.23994,-36.29588]],[[174.23994,-36.29588],[174.24086,-36.29557]],[[174.24086,-36.29557],[174.24177,-36.29537]],[[174.24177,-36.29537],[174.2427,-36.29526]],[[174.2427,-36.29526],[174.2437,-36.29522]],[[174.2437,-36.29522],[174.24463,-36.29525]],[[174.24463,-36.29525],[174.24839,-36.2956]],[[174.24839,-36.2956],[174.25474,-36.29636]],[[174.25474,-36.29636],[174.26545,-36.29745]],[[174.26545,-36.29745],[174.26823,-36.29776]],[[174.26823,-36.29776],[174.2706,-36.29806]],[[174.2706,-36.29806],[174.27388,-36.29856]],[[174.27388,-36.29856],[174.27741,-36.29915]],[[174.27741,-36.29915],[174.28132,-36.29986]],[[174.28132,-36.29986],[174.28653,-36.30085]],[[174.28653,-36.30085],[174.29024,-36.30125]],[[174.29024,-36.30125],[174.29226,-36.30153]],[[174.29226,-36.30153],[174.29368,-36.30181]],[[174.29368,-36.30181],[174.29494,-36.30213]],[[174.29494,-36.30213],[174.29566,-36.30237]],[[174.29566,-36.30237],[174.29636,-36.30263]],[[174.29636,-36.30263],[174.29729,-36.30305]],[[174.29729,-36.30305],[174.29808,-36.30345]],[[174.29808,-36.30345],[174.29874,-36.30383]],[[174.29874,-36.30383],[174.29947,-36.30431]],[[174.29947,-36.30431],[174.30018,-36.30483]],[[174.30018,-36.30483],[174.30085,-36.30538]],[[174.30085,-36.30538],[174.30139,-36.30587]],[[174.30139,-36.30587],[174.30198,-36.30647]],[[174.30198,-36.30647],[174.30253,-36.3071]],[[174.30253,-36.3071],[174.30298,-36.30769]],[[174.30298,-36.30769],[174.30362,-36.30875]],[[174.30362,-36.30875],[174.30474,-36.31108]],[[174.30474,-36.31108],[174.30529,-36.31207]],[[174.30529,-36.31207],[174.30568,-36.31265]],[[174.30568,-36.31265],[174.30617,-36.31331]],[[174.30617,-36.31331],[174.30711,-36.31438]],[[174.30711,-36.31438],[174.30772,-36.31496]],[[174.30772,-36.31496],[174.30837,-36.3155]],[[174.30837,-36.3155],[174.30976,-36.31649]],[[174.30976,-36.31649],[174.31042,-36.31692]],[[174.31042,-36.31692],[174.31112,-36.31731]],[[174.31112,-36.31731],[174.31184,-36.31764]],[[174.31184,-36.31764],[174.31245,-36.31786]],[[174.31245,-36.31786],[174.31308,-36.31802]],[[174.31308,-36.31802],[174.3137,-36.31811]],[[174.3137,-36.31811],[174.31437,-36.31812]],[[174.31437,-36.31812],[174.31499,-36.31805]],[[174.31499,-36.31805],[174.31574,-36.31788]],[[174.31574,-36.31788],[174.31649,-36.31763]],[[174.31649,-36.31763],[174.3175,-36.31723]],[[174.3175,-36.31723],[174.31915,-36.31649]],[[174.31915,-36.31649],[174.32069,-36.31573]],[[174.32069,-36.31573],[174.3214,-36.31542]],[[174.3214,-36.31542],[174.32188,-36.31526]],[[174.32188,-36.31526],[174.32237,-36.31515]],[[174.32237,-36.31515],[174.32277,-36.3151]],[[174.32277,-36.3151],[174.32329,-36.31508]],[[174.32329,-36.31508],[174.32395,-36.31513]],[[174.32395,-36.31513],[174.32462,-36.31523]],[[174.32462,-36.31523],[174.32541,-36.31542]],[[174.32541,-36.31542],[174.32619,-36.31567]],[[174.32619,-36.31567],[174.32712,-36.31604]],[[174.32712,-36.31604],[174.32769,-36.31631]],[[174.32769,-36.31631],[174.32834,-36.31668]],[[174.32834,-36.31668],[174.33039,-36.31792]],[[174.33039,-36.31792],[174.33098,-36.31822]],[[174.33098,-36.31822],[174.33182,-36.31858]],[[174.33182,-36.31858],[174.33292,-36.319]],[[174.33292,-36.319],[174.33405,-36.31936]],[[174.33405,-36.31936],[174.33521,-36.31964]],[[174.33521,-36.31964],[174.33625,-36.31983]],[[174.33625,-36.31983],[174.33762,-36.32]],[[174.33762,-36.32],[174.33868,-36.32006]],[[174.33868,-36.32006],[174.33987,-36.32006]],[[174.33987,-36.32006],[174.34121,-36.31997]],[[174.34121,-36.31997],[174.34242,-36.31982]],[[174.34242,-36.31982],[174.34376,-36.31961]],[[174.34376,-36.31961],[174.34781,-36.31874]],[[174.34781,-36.31874],[174.34947,-36.31832]],[[174.34947,-36.31832],[174.3511,-36.31783]],[[174.3511,-36.31783],[174.35233,-36.3174]],[[174.35233,-36.3174],[174.35379,-36.31684]],[[174.35379,-36.31684],[174.35533,-36.31629]],[[174.35533,-36.31629],[174.35617,-36.31594]],[[174.35617,-36.31594],[174.35696,-36.31554]],[[174.35696,-36.31554],[174.35766,-36.31511]],[[174.35766,-36.31511],[174.35824,-36.31468]],[[174.35824,-36.31468],[174.35886,-36.31413]],[[174.35886,-36.31413],[174.3595,-36.31344]],[[174.3595,-36.31344],[174.36007,-36.31269]],[[174.36007,-36.31269],[174.36065,-36.31181]],[[174.36065,-36.31181],[174.36116,-36.31089]],[[174.36116,-36.31089],[174.36162,-36.30997]],[[174.36162,-36.30997],[174.36196,-36.30914]],[[174.36196,-36.30914],[174.36267,-36.30727]],[[174.36267,-36.30727],[174.36308,-36.30636]],[[174.36308,-36.30636],[174.36335,-36.30587]],[[174.36335,-36.30587],[174.36358,-36.30552]],[[174.36358,-36.30552],[174.36437,-36.30452]],[[174.36437,-36.30452],[174.36493,-36.30391]],[[174.36493,-36.30391],[174.36563,-36.30325]],[[174.36563,-36.30325],[174.36627,-36.30269]],[[174.36627,-36.30269],[174.36706,-36.30208]],[[174.36706,-36.30208],[174.36982,-36.30016]],[[174.36982,-36.30016],[174.3708,-36.29957]],[[174.3708,-36.29957],[174.37181,-36.29902]],[[174.37181,-36.29902],[174.37321,-36.29837]],[[174.37321,-36.29837],[174.37466,-36.29782]],[[174.37466,-36.29782],[174.37626,-36.29734]],[[174.37626,-36.29734],[174.37766,-36.29704]],[[174.37766,-36.29704],[174.37897,-36.29684]],[[174.37897,-36.29684],[174.38044,-36.29667]],[[174.38044,-36.29667],[174.38763,-36.29604]],[[174.38763,-36.29604],[174.38909,-36.29589]],[[174.38909,-36.29589],[174.39079,-36.29565]],[[174.39079,-36.29565],[174.39232,-36.29534]],[[174.39232,-36.29534],[174.39307,-36.29515]],[[174.39307,-36.29515],[174.39406,-36.29484]],[[174.39406,-36.29484],[174.39492,-36.29454]],[[174.39492,-36.29454],[174.39576,-36.29421]],[[174.39576,-36.29421],[174.39659,-36.29384]],[[174.39659,-36.29384],[174.39741,-36.29345]],[[174.39741,-36.29345],[174.39899,-36.29256]],[[174.39899,-36.29256],[174.40026,-36.29173]],[[174.40026,-36.29173],[174.40145,-36.29082]],[[174.40145,-36.29082],[174.40264,-36.28978]],[[174.40264,-36.28978],[174.40316,-36.28927]],[[174.40316,-36.28927],[174.40357,-36.28882]],[[174.40357,-36.28882],[174.40422,-36.28803]],[[174.40422,-36.28803],[174.40494,-36.287]],[[174.40494,-36.287],[174.40561,-36.28594]],[[174.40561,-36.28594],[174.40731,-36.28308]],[[174.40731,-36.28308],[174.40788,-36.28221]],[[174.40788,-36.28221],[174.40841,-36.28145]],[[174.40841,-36.28145],[174.40957,-36.28]],[[174.40957,-36.28],[174.41037,-36.2791]],[[174.41037,-36.2791],[174.41114,-36.27834]],[[174.41114,-36.27834],[174.41198,-36.27767]],[[174.41198,-36.27767],[174.41259,-36.27727]],[[174.41259,-36.27727],[174.41322,-36.27693]],[[174.41322,-36.27693],[174.41404,-36.27657]],[[174.41404,-36.27657],[174.41489,-36.27626]],[[174.41489,-36.27626],[174.41642,-36.2758]],[[174.41642,-36.2758],[174.41965,-36.27495]],[[174.41965,-36.27495],[174.42159,-36.27443]],[[174.42159,-36.27443],[174.42324,-36.27396]],[[174.42324,-36.27396],[174.42399,-36.27373]],[[174.42399,-36.27373],[174.4261,-36.27299]],[[174.4261,-36.27299],[174.42656,-36.27278]],[[174.42656,-36.27278],[174.42689,-36.27258]],[[174.42689,-36.27258],[174.42709,-36.2724]],[[174.42709,-36.2724],[174.42731,-36.27212]],[[174.42731,-36.27212],[174.42747,-36.27186]],[[174.42747,-36.27186],[174.42764,-36.27154]],[[174.42764,-36.27154],[174.4279,-36.2708]],[[174.4279,-36.2708],[174.42845,-36.26894]],[[174.42845,-36.26894],[174.42858,-36.2686]],[[174.42858,-36.2686],[174.42871,-36.26833]],[[174.42871,-36.26833],[174.4289,-36.26804]],[[174.4289,-36.26804],[174.42912,-36.26781]],[[174.42912,-36.26781],[174.42942,-36.26758]],[[174.42942,-36.26758],[174.42982,-36.26735]],[[174.42982,-36.26735],[174.4302,-36.26718]],[[174.4302,-36.26718],[174.43055,-36.26706]],[[174.43055,-36.26706],[174.43158,-36.26674]],[[174.43158,-36.26674],[174.43216,-36.26658]],[[174.43216,-36.26658],[174.43275,-36.26646]],[[174.43275,-36.26646],[174.43316,-36.26641]],[[174.43316,-36.26641],[174.43354,-36.26639]],[[174.43354,-36.26639],[174.43397,-36.2664]],[[174.43397,-36.2664],[174.43506,-36.26646]],[[174.43506,-36.26646],[174.43561,-36.26646]],[[174.43561,-36.26646],[174.43603,-36.26641]],[[174.43603,-36.26641],[174.43659,-36.26626]],[[174.43659,-36.26626],[174.43728,-36.26604]],[[174.43728,-36.26604],[174.43778,-36.26584]],[[174.43778,-36.26584],[174.43789,-36.26581]],[[174.43789,-36.26581],[174.43844,-36.26557]],[[174.43844,-36.26557],[174.43901,-36.26528]],[[174.43901,-36.26528],[174.43962,-36.26494]],[[174.43962,-36.26494],[174.44057,-36.26435]],[[174.44057,-36.26435],[174.44136,-36.26382]],[[174.44136,-36.26382],[174.44206,-36.26331]],[[174.44206,-36.26331],[174.44444,-36.26141]],[[174.44444,-36.26141],[174.44732,-36.25945]],[[174.44732,-36.25945],[174.44809,-36.25888]],[[174.44809,-36.25888],[174.44875,-36.25836]],[[174.44875,-36.25836],[174.44984,-36.25742]],[[174.44984,-36.25742],[174.45125,-36.25611]],[[174.45125,-36.25611],[174.45242,-36.25454]],[[174.45242,-36.25454],[174.45271,-36.25419]],[[174.45271,-36.25419],[174.45301,-36.25387]],[[174.45301,-36.25387],[174.45325,-36.25365]],[[174.45325,-36.25365],[174.45356,-36.25344]],[[174.45356,-36.25344],[174.45383,-36.25328]],[[174.45383,-36.25328],[174.45413,-36.25316]],[[174.45413,-36.25316],[174.45461,-36.25304]],[[174.45461,-36.25304],[174.45494,-36.25298]],[[174.45494,-36.25298],[174.45526,-36.25295]],[[174.45526,-36.25295],[174.45558,-36.25295]],[[174.45558,-36.25295],[174.45587,-36.253]],[[174.45587,-36.253],[174.45609,-36.25307]],[[174.45609,-36.25307],[174.45628,-36.25318]],[[174.45628,-36.25318],[174.45648,-36.25335]],[[174.45648,-36.25335],[174.45666,-36.25356]],[[174.45666,-36.25356],[174.4568,-36.2538]],[[174.4568,-36.2538],[174.45705,-36.25428]],[[174.45705,-36.25428],[174.45719,-36.25466]],[[174.45719,-36.25466],[174.45727,-36.255]],[[174.45727,-36.255],[174.45734,-36.25545]],[[174.45734,-36.25545],[174.45735,-36.25648]],[[174.45735,-36.25648],[174.45741,-36.25688]],[[174.45741,-36.25688],[174.45749,-36.25718]],[[174.45749,-36.25718],[174.4576,-36.25746]],[[174.4576,-36.25746],[174.45774,-36.25774]],[[174.45774,-36.25774],[174.45788,-36.25798]],[[174.45788,-36.25798],[174.45806,-36.25824]],[[174.45806,-36.25824],[174.45833,-36.25857]],[[174.45833,-36.25857],[174.45857,-36.2588]],[[174.45857,-36.2588],[174.45887,-36.25906]],[[174.45887,-36.25906],[174.45997,-36.25985]],[[174.45997,-36.25985],[174.46043,-36.26012]],[[174.46043,-36.26012],[174.46079,-36.26031]],[[174.46079,-36.26031],[174.46117,-36.26047]],[[174.46117,-36.26047],[174.46162,-36.26064]],[[174.46162,-36.26064],[174.46231,-36.26083]],[[174.46231,-36.26083],[174.46285,-36.26096]],[[174.46285,-36.26096],[174.46335,-36.26104]],[[174.46335,-36.26104],[174.46378,-36.26108]],[[174.46378,-36.26108],[174.46428,-36.26109]],[[174.46428,-36.26109],[174.46471,-36.26107]],[[174.46471,-36.26107],[174.46514,-36.26102]],[[174.46514,-36.26102],[174.46575,-36.26091]],[[174.46575,-36.26091],[174.46622,-36.26079]],[[174.46622,-36.26079],[174.46662,-36.26065]],[[174.46662,-36.26065],[174.46707,-36.26046]],[[174.46707,-36.26046],[174.46738,-36.2603]],[[174.46738,-36.2603],[174.46772,-36.26009]],[[174.46772,-36.26009],[174.46817,-36.25977]],[[174.46817,-36.25977],[174.46858,-36.25941]],[[174.46858,-36.25941],[174.46876,-36.25921]],[[174.46876,-36.25921],[174.46901,-36.25892]],[[174.46901,-36.25892],[174.4694,-36.25834]],[[174.4694,-36.25834],[174.4697,-36.25778]],[[174.4697,-36.25778],[174.46989,-36.25732]],[[174.46989,-36.25732],[174.47002,-36.25694]],[[174.47002,-36.25694],[174.47015,-36.25646]],[[174.47015,-36.25646],[174.47045,-36.25518]],[[174.47045,-36.25518],[174.47055,-36.25485]],[[174.47055,-36.25485],[174.47063,-36.25463]],[[174.47063,-36.25463],[174.47092,-36.25397]],[[174.47092,-36.25397],[174.47129,-36.25324]],[[174.47129,-36.25324],[174.47181,-36.25223]],[[174.47181,-36.25223],[174.4728,-36.25042]],[[174.4728,-36.25042],[174.47303,-36.24985]],[[174.47303,-36.24985],[174.4732,-36.24917]],[[174.4732,-36.24917],[174.47333,-36.24839]],[[174.47333,-36.24839],[174.47341,-36.24714]],[[174.47341,-36.24714],[174.47354,-36.24621]],[[174.47354,-36.24621],[174.47361,-36.24552]],[[174.47361,-36.24552],[174.47365,-36.24472]],[[174.47365,-36.24472],[174.47361,-36.24398]],[[174.47361,-36.24398],[174.47354,-36.24344]],[[174.47354,-36.24344],[174.47342,-36.243]],[[174.47342,-36.243],[174.47324,-36.24248]],[[174.47324,-36.24248],[174.47274,-36.2412]],[[174.47274,-36.2412],[174.47251,-36.24044]],[[174.47251,-36.24044],[174.47233,-36.23966]],[[174.47233,-36.23966],[174.47227,-36.23902]],[[174.47227,-36.23902],[174.47227,-36.23874]],[[174.47227,-36.23874],[174.4723,-36.23845]],[[174.4723,-36.23845],[174.47244,-36.23771]],[[174.47244,-36.23771],[174.47257,-36.23717]],[[174.47257,-36.23717],[174.47289,-36.23632]],[[174.47289,-36.23632],[174.47308,-36.2359]],[[174.47308,-36.2359],[174.47328,-36.23554]],[[174.47328,-36.23554],[174.4735,-36.2352]],[[174.4735,-36.2352],[174.47377,-36.23487]],[[174.47377,-36.23487],[174.47411,-36.23451]],[[174.47411,-36.23451],[174.47455,-36.23408]],[[174.47455,-36.23408],[174.47551,-36.23324]],[[174.47551,-36.23324],[174.47583,-36.23294]],[[174.47583,-36.23294],[174.47612,-36.23264]],[[174.47612,-36.23264],[174.47643,-36.23228]],[[174.47643,-36.23228],[174.47686,-36.23168]],[[174.47686,-36.23168],[174.47739,-36.23073]],[[174.47739,-36.23073],[174.47761,-36.23038]],[[174.47761,-36.23038],[174.47798,-36.22989]],[[174.47798,-36.22989],[174.4783,-36.22952]],[[174.4783,-36.22952],[174.47854,-36.2293]],[[174.47854,-36.2293],[174.47884,-36.22907]],[[174.47884,-36.22907],[174.47908,-36.22891]],[[174.47908,-36.22891],[174.47938,-36.22873]],[[174.47938,-36.22873],[174.47987,-36.2285]],[[174.47987,-36.2285],[174.48067,-36.22824]],[[174.48067,-36.22824],[174.481,-36.2281]],[[174.481,-36.2281],[174.48101,-36.2281]],[[174.48101,-36.2281],[174.4813,-36.22811]],[[174.4813,-36.22811],[174.48151,-36.2282]],[[174.48151,-36.2282],[174.48169,-36.22825]],[[174.48169,-36.22825],[174.48175,-36.22828]],[[174.48175,-36.22828],[174.48317,-36.22803]],[[174.48317,-36.22803],[174.48339,-36.22832]],[[174.48339,-36.22832],[174.48328,-36.22918]],[[174.48328,-36.22918],[174.4835,-36.23009]],[[174.4835,-36.23009],[174.48354,-36.2302]],[[174.48354,-36.2302],[174.48508,-36.2296]],[[174.48508,-36.2296],[174.48581,-36.22908]],[[174.48581,-36.22908],[174.48589,-36.22901]],[[174.48589,-36.22901],[174.48592,-36.22895]],[[174.48592,-36.22895],[174.48596,-36.22839]],[[174.48596,-36.22839],[174.48594,-36.2283]],[[174.48594,-36.2283],[174.48589,-36.22817]],[[174.48589,-36.22817],[174.48573,-36.22792]],[[174.48573,-36.22792],[174.48545,-36.22729]],[[174.48545,-36.22729],[174.48551,-36.22659]],[[174.48551,-36.22659],[174.48579,-36.22578]],[[174.48579,-36.22578],[174.48591,-36.22561]],[[174.48591,-36.22561],[174.48776,-36.22392]],[[174.48776,-36.22392],[174.48814,-36.22341]],[[174.48814,-36.22341],[174.48853,-36.22295]],[[174.48853,-36.22295],[174.48875,-36.22312]],[[174.48875,-36.22312],[174.48891,-36.22328]],[[174.48891,-36.22328],[174.48909,-36.22351]],[[174.48909,-36.22351],[174.48923,-36.22379]],[[174.48923,-36.22379],[174.48932,-36.22411]],[[174.48932,-36.22411],[174.4895,-36.22414]],[[174.4895,-36.22414],[174.49814,-36.22412]],[[174.49814,-36.22412],[174.49823,-36.22423]],[[174.49823,-36.22423],[174.49845,-36.22432]],[[174.49845,-36.22432],[174.49854,-36.22424]],[[174.49854,-36.22424],[174.49872,-36.2239]],[[174.49872,-36.2239],[174.49943,-36.22335]],[[174.49943,-36.22335],[174.50057,-36.22273]],[[174.50057,-36.22273],[174.50123,-36.22212]],[[174.50123,-36.22212],[174.50186,-36.22109]],[[174.50186,-36.22109],[174.50243,-36.2206]],[[174.50243,-36.2206],[174.50319,-36.22025]],[[174.50319,-36.22025],[174.50333,-36.21999]],[[174.50333,-36.21999],[174.50455,-36.22011]],[[174.50455,-36.22011],[174.50477,-36.22001]],[[174.50477,-36.22001],[174.50507,-36.2201]],[[174.50507,-36.2201],[174.50582,-36.21992]],[[174.50582,-36.21992],[174.50596,-36.21978]],[[174.50596,-36.21978],[174.50636,-36.21965]],[[174.50636,-36.21965],[174.50648,-36.21943]],[[174.50648,-36.21943],[174.50689,-36.21924]],[[174.50689,-36.21924],[174.50724,-36.21886]],[[174.50724,-36.21886],[174.50998,-36.21685]],[[174.50998,-36.21685],[174.51048,-36.21615]],[[174.51048,-36.21615],[174.51094,-36.21595]],[[174.51094,-36.21595],[174.51195,-36.21491]],[[174.51195,-36.21491],[174.51261,-36.21461]],[[174.51261,-36.21461],[174.51317,-36.21423]],[[174.51317,-36.21423],[174.51344,-36.21421]],[[174.51344,-36.21421],[174.51366,-36.21412]],[[174.51366,-36.21412],[174.51398,-36.21382]],[[174.51398,-36.21382],[174.51484,-36.2134]],[[174.51484,-36.2134],[174.51502,-36.21293]],[[174.51502,-36.21293],[174.5154,-36.21275]],[[174.5154,-36.21275],[174.51568,-36.21278]],[[174.51568,-36.21278],[174.51593,-36.21276]],[[174.51593,-36.21276],[174.51615,-36.2126]],[[174.51615,-36.2126],[174.51639,-36.21207]],[[174.51639,-36.21207],[174.51661,-36.21194]],[[174.51661,-36.21194],[174.51693,-36.21183]],[[174.51693,-36.21183],[174.51733,-36.21175]],[[174.51733,-36.21175],[174.5174,-36.21127]],[[174.5174,-36.21127],[174.51755,-36.21107]],[[174.51755,-36.21107],[174.51762,-36.211]],[[174.51762,-36.211],[174.51825,-36.21074]],[[174.51825,-36.21074],[174.51851,-36.21048]],[[174.51851,-36.21048],[174.5188,-36.21046]],[[174.5188,-36.21046],[174.51915,-36.21066]],[[174.51915,-36.21066],[174.51947,-36.2107]],[[174.51947,-36.2107],[174.51975,-36.21079]],[[174.51975,-36.21079],[174.52034,-36.21085]],[[174.52034,-36.21085],[174.52067,-36.2108]],[[174.52067,-36.2108],[174.52096,-36.21086]],[[174.52096,-36.21086],[174.52113,-36.21092]],[[174.52113,-36.21092],[174.52152,-36.21077]],[[174.52152,-36.21077],[174.52195,-36.21029]],[[174.52195,-36.21029],[174.52235,-36.21025]],[[174.52235,-36.21025],[174.523,-36.21008]],[[174.523,-36.21008],[174.52332,-36.20934]],[[174.52332,-36.20934],[174.52357,-36.2092]],[[174.52357,-36.2092],[174.52381,-36.20884]],[[174.52381,-36.20884],[174.52435,-36.2086]],[[174.52435,-36.2086],[174.52507,-36.20823]],[[174.52507,-36.20823],[174.5254,-36.20791]],[[174.5254,-36.20791],[174.5254,-36.20783]],[[174.5254,-36.20783],[174.52498,-36.20756]],[[174.52498,-36.20756],[174.52463,-36.20682]],[[174.52463,-36.20682],[174.52424,-36.20574]],[[174.52424,-36.20574],[174.52332,-36.20497]],[[174.52332,-36.20497],[174.5232,-36.20471]],[[174.5232,-36.20471],[174.52365,-36.20419]],[[174.52365,-36.20419],[174.52376,-36.20371]],[[174.52376,-36.20371],[174.52452,-36.20278]],[[174.52452,-36.20278],[174.52379,-36.20168]],[[174.52379,-36.20168],[174.52316,-36.20151]],[[174.52316,-36.20151],[174.52302,-36.20089]],[[174.52302,-36.20089],[174.52333,-36.20028]],[[174.52333,-36.20028],[174.52302,-36.19908]],[[174.52302,-36.19908],[174.52263,-36.19848]],[[174.52263,-36.19848],[174.52254,-36.19793]],[[174.52254,-36.19793],[174.52228,-36.19763]],[[174.52228,-36.19763],[174.5223,-36.19722]],[[174.5223,-36.19722],[174.52281,-36.19653]],[[174.52281,-36.19653],[174.52337,-36.19613]],[[174.52337,-36.19613],[174.52413,-36.19526]],[[174.52413,-36.19526],[174.52433,-36.19475]],[[174.52433,-36.19475],[174.5255,-36.19372]],[[174.5255,-36.19372],[174.526,-36.19358]],[[174.526,-36.19358],[174.52629,-36.19346]],[[174.52629,-36.19346],[174.52635,-36.19327]],[[174.52635,-36.19327],[174.52625,-36.19245]],[[174.52625,-36.19245],[174.52665,-36.19183]],[[174.52665,-36.19183],[174.52693,-36.19175]],[[174.52693,-36.19175],[174.52725,-36.19133]],[[174.52725,-36.19133],[174.52786,-36.19103]],[[174.52786,-36.19103],[174.52843,-36.19104]],[[174.52843,-36.19104],[174.52928,-36.19054]],[[174.52928,-36.19054],[174.52966,-36.19029]],[[174.52966,-36.19029],[174.52987,-36.18987]],[[174.52987,-36.18987],[174.53031,-36.18961]],[[174.53031,-36.18961],[174.53057,-36.18835]],[[174.53057,-36.18835],[174.53085,-36.18822]],[[174.53085,-36.18822],[174.53086,-36.18759]],[[174.53086,-36.18759],[174.53124,-36.18692]],[[174.53124,-36.18692],[174.53159,-36.18655]],[[174.53159,-36.18655],[174.5317,-36.18649]],[[174.5317,-36.18649],[174.53205,-36.18631]],[[174.53205,-36.18631],[174.53231,-36.18592]],[[174.53231,-36.18592],[174.53237,-36.18567]],[[174.53237,-36.18567],[174.53262,-36.18543]],[[174.53262,-36.18543],[174.53294,-36.18474]],[[174.53294,-36.18474],[174.53368,-36.18436]],[[174.53368,-36.18436],[174.53457,-36.18351]],[[174.53457,-36.18351],[174.53558,-36.18316]],[[174.53558,-36.18316],[174.53611,-36.18317]],[[174.53611,-36.18317],[174.53675,-36.18305]],[[174.53675,-36.18305],[174.53764,-36.18316]],[[174.53764,-36.18316],[174.53838,-36.18284]],[[174.53838,-36.18284],[174.53901,-36.1828]],[[174.53901,-36.1828],[174.5397,-36.18282]],[[174.5397,-36.18282],[174.54095,-36.18202]],[[174.54095,-36.18202],[174.54281,-36.18135]],[[174.54281,-36.18135],[174.54352,-36.1808]],[[174.54352,-36.1808],[174.54421,-36.18045]],[[174.54421,-36.18045],[174.54465,-36.18014]],[[174.54465,-36.18014],[174.54585,-36.17948]],[[174.54585,-36.17948],[174.54647,-36.17947]],[[174.54647,-36.17947],[174.54651,-36.17965]],[[174.54651,-36.17965],[174.54693,-36.18006]],[[174.54693,-36.18006],[174.54802,-36.18021]],[[174.54802,-36.18021],[174.54843,-36.17976]],[[174.54843,-36.17976],[174.54965,-36.17917]],[[174.54965,-36.17917],[174.55039,-36.17818]],[[174.55039,-36.17818],[174.55071,-36.17809]],[[174.55071,-36.17809],[174.55185,-36.17743]],[[174.55185,-36.17743],[174.55224,-36.17745]],[[174.55224,-36.17745],[174.55303,-36.17726]],[[174.55303,-36.17726],[174.55392,-36.17751]],[[174.55392,-36.17751],[174.5544,-36.17753]],[[174.5544,-36.17753],[174.55483,-36.17762]],[[174.55483,-36.17762],[174.55578,-36.17767]],[[174.55578,-36.17767],[174.55618,-36.17755]],[[174.55618,-36.17755],[174.55678,-36.1779]],[[174.55678,-36.1779],[174.55725,-36.17823]],[[174.55725,-36.17823],[174.55795,-36.17852]],[[174.55795,-36.17852],[174.56,-36.17857]],[[174.56,-36.17857],[174.56085,-36.179]],[[174.56085,-36.179],[174.56283,-36.17909]],[[174.56283,-36.17909],[174.56281,-36.179]],[[174.56281,-36.179],[174.5641,-36.17384]],[[174.5641,-36.17384],[174.56576,-36.17411]],[[174.56576,-36.17411],[174.56564,-36.17131]],[[174.56564,-36.17131],[174.56637,-36.17121]],[[174.56637,-36.17121],[174.56657,-36.1712]],[[174.56657,-36.1712],[174.56881,-36.17171]],[[174.56881,-36.17171],[174.56912,-36.17171]],[[174.56912,-36.17171],[174.56938,-36.17174]],[[174.56938,-36.17174],[174.57029,-36.1719]],[[174.57029,-36.1719],[174.57115,-36.16615]],[[174.57115,-36.16615],[174.57191,-36.16623]],[[174.57191,-36.16623],[174.58019,-36.16703]],[[174.58019,-36.16703],[174.58033,-36.16683]],[[174.58033,-36.16683],[174.58136,-36.16595]],[[174.58136,-36.16595],[174.58285,-36.16437]],[[174.58285,-36.16437],[174.58291,-36.16401]],[[174.58291,-36.16401],[174.58277,-36.16368]],[[174.58277,-36.16368],[174.58249,-36.16315]],[[174.58249,-36.16315],[174.58246,-36.16291]],[[174.58246,-36.16291],[174.5825,-36.16257]],[[174.5825,-36.16257],[174.58258,-36.16236]],[[174.58258,-36.16236],[174.58267,-36.1622]],[[174.58267,-36.1622],[174.58279,-36.16207]],[[174.58279,-36.16207],[174.58302,-36.16196]],[[174.58302,-36.16196],[174.58343,-36.16184]],[[174.58343,-36.16184],[174.58419,-36.16159]],[[174.58419,-36.16159],[174.5844,-36.1614]],[[174.5844,-36.1614],[174.58513,-36.16081]],[[174.58513,-36.16081],[174.58527,-36.1606]],[[174.58527,-36.1606],[174.58536,-36.16028]],[[174.58536,-36.16028],[174.58548,-36.15999]],[[174.58548,-36.15999],[174.58599,-36.15905]],[[174.58599,-36.15905],[174.58665,-36.15812]],[[174.58665,-36.15812],[174.58672,-36.15768]],[[174.58672,-36.15768],[174.58669,-36.15747]],[[174.58669,-36.15747],[174.58649,-36.15724]],[[174.58649,-36.15724],[174.58618,-36.15708]],[[174.58618,-36.15708],[174.58492,-36.1567]],[[174.58492,-36.1567],[174.5846,-36.15657]],[[174.5846,-36.15657],[174.58427,-36.15635]],[[174.58427,-36.15635],[174.5841,-36.15614]],[[174.5841,-36.15614],[174.58396,-36.1559]],[[174.58396,-36.1559],[174.58376,-36.15478]],[[174.58376,-36.15478],[174.58375,-36.15443]],[[174.58375,-36.15443],[174.58393,-36.15353]],[[174.58393,-36.15353],[174.58391,-36.15321]],[[174.58391,-36.15321],[174.58378,-36.1528]],[[174.58378,-36.1528],[174.583,-36.1509]],[[174.583,-36.1509],[174.58259,-36.14848]],[[174.58259,-36.14848],[174.58258,-36.14811]],[[174.58258,-36.14811],[174.5826,-36.14791]],[[174.5826,-36.14791],[174.58264,-36.14775]],[[174.58264,-36.14775],[174.58334,-36.14566]],[[174.58334,-36.14566],[174.58357,-36.14515]],[[174.58357,-36.14515],[174.58409,-36.14418]],[[174.58409,-36.14418],[174.58451,-36.14346]],[[174.58451,-36.14346],[174.58473,-36.14314]],[[174.58473,-36.14314],[174.58492,-36.14292]],[[174.58492,-36.14292],[174.58568,-36.14212]],[[174.58568,-36.14212],[174.58577,-36.14211]],[[174.58577,-36.14211],[174.58586,-36.14207]],[[174.58586,-36.14207],[174.58695,-36.14122]],[[174.58695,-36.14122],[174.58733,-36.14099]],[[174.58733,-36.14099],[174.58807,-36.14062]],[[174.58807,-36.14062],[174.58838,-36.14053]],[[174.58838,-36.14053],[174.58865,-36.14047]],[[174.58865,-36.14047],[174.58889,-36.14044]],[[174.58889,-36.14044],[174.58925,-36.14043]],[[174.58925,-36.14043],[174.58945,-36.14043]],[[174.58945,-36.14043],[174.58967,-36.14048]],[[174.58967,-36.14048],[174.58983,-36.14055]],[[174.58983,-36.14055],[174.59037,-36.14099]],[[174.59037,-36.14099],[174.5905,-36.14106]],[[174.5905,-36.14106],[174.59205,-36.14178]],[[174.59205,-36.14178],[174.59372,-36.14181]],[[174.59372,-36.14181],[174.59382,-36.14169]],[[174.59382,-36.14169],[174.59856,-36.14028]],[[174.59856,-36.14028],[174.59824,-36.13974]],[[174.59824,-36.13974],[174.59857,-36.1394]],[[174.59857,-36.1394],[174.59878,-36.13931]],[[174.59878,-36.13931],[174.59906,-36.13924]],[[174.59906,-36.13924],[174.59905,-36.13848]],[[174.59905,-36.13848],[174.6017,-36.13671]],[[174.6017,-36.13671],[174.60085,-36.13323]],[[174.60085,-36.13323],[174.60223,-36.13302]],[[174.60223,-36.13302],[174.60635,-36.13267]],[[174.60635,-36.13267],[174.6068,-36.13278]],[[174.6068,-36.13278],[174.60713,-36.13182]],[[174.60713,-36.13182],[174.60686,-36.13025]],[[174.60686,-36.13025],[174.60636,-36.12923]],[[174.60636,-36.12923],[174.60506,-36.12854]],[[174.60506,-36.12854],[174.60447,-36.12709]],[[174.60447,-36.12709],[174.60687,-36.12281]],[[174.60687,-36.12281],[174.60591,-36.12162]],[[174.60591,-36.12162],[174.61664,-36.11756]],[[174.72253,-37.25813],[174.72006,-37.25863]],[[174.72006,-37.25863],[174.71286,-37.25947]],[[174.71286,-37.25947],[174.71285,-37.25938]],[[174.71285,-37.25938],[174.71242,-37.25964]],[[174.71242,-37.25964],[174.7095,-37.26154]],[[174.7095,-37.26154],[174.70929,-37.26166]],[[174.70929,-37.26166],[174.70913,-37.26174]],[[174.70913,-37.26174],[174.70898,-37.26178]],[[174.70898,-37.26178],[174.70879,-37.26182]],[[174.70879,-37.26182],[174.70651,-37.26211]],[[174.70651,-37.26211],[174.70635,-37.26211]],[[174.70635,-37.26211],[174.70621,-37.26211]],[[174.70621,-37.26211],[174.70609,-37.26209]],[[174.70609,-37.26209],[174.70584,-37.262]],[[174.70584,-37.262],[174.70529,-37.26179]],[[174.70529,-37.26179],[174.70497,-37.26171]],[[174.70497,-37.26171],[174.70484,-37.2617]],[[174.70484,-37.2617],[174.70426,-37.26171]],[[174.70426,-37.26171],[174.70379,-37.26174]],[[174.70379,-37.26174],[174.7029,-37.26178]],[[174.7029,-37.26178],[174.70221,-37.26176]],[[174.70221,-37.26176],[174.70112,-37.26169]],[[174.70112,-37.26169],[174.70004,-37.26159]],[[174.70004,-37.26159],[174.6997,-37.26153]],[[174.6997,-37.26153],[174.69951,-37.2617]],[[174.69951,-37.2617],[174.6962,-37.26321]],[[174.6962,-37.26321],[174.69221,-37.26499]],[[174.69221,-37.26499],[174.69081,-37.26563]],[[174.69081,-37.26563],[174.69019,-37.26583]],[[174.69019,-37.26583],[174.68929,-37.26615]],[[174.68929,-37.26615],[174.68867,-37.26677]],[[174.68867,-37.26677],[174.68624,-37.2681]],[[174.68624,-37.2681],[174.68553,-37.26854]],[[174.68553,-37.26854],[174.68343,-37.26953]],[[174.68343,-37.26953],[174.68178,-37.27157]],[[174.68178,-37.27157],[174.68153,-37.2718]],[[174.68153,-37.2718],[174.68118,-37.272]],[[174.68118,-37.272],[174.67951,-37.27283]],[[174.67951,-37.27283],[174.67795,-37.27366]],[[174.67795,-37.27366],[174.676,-37.2744]],[[174.676,-37.2744],[174.67454,-37.2754]],[[174.67454,-37.2754],[174.67364,-37.27569]],[[174.67364,-37.27569],[174.67181,-37.27639]],[[174.67181,-37.27639],[174.67144,-37.27651]],[[174.67144,-37.27651],[174.66924,-37.2773]],[[174.66924,-37.2773],[174.66508,-37.27883]],[[174.66508,-37.27883],[174.66491,-37.27891]],[[174.66491,-37.27891],[174.66479,-37.27917]],[[174.66479,-37.27917],[174.66477,-37.27941]],[[174.66477,-37.27941],[174.66452,-37.27988]],[[174.66452,-37.27988],[174.663,-37.2808]],[[174.663,-37.2808],[174.65969,-37.28163]],[[174.65969,-37.28163],[174.65819,-37.28204]],[[174.65819,-37.28204],[174.65817,-37.28209]],[[174.65817,-37.28209],[174.65807,-37.2824]],[[174.65807,-37.2824],[174.65799,-37.28313]],[[174.65799,-37.28313],[174.65774,-37.28391]],[[174.65774,-37.28391],[174.65915,-37.28403]],[[174.65915,-37.28403],[174.65999,-37.28504]],[[174.65999,-37.28504],[174.6598,-37.2855]],[[174.6598,-37.2855],[174.65992,-37.28607]],[[174.65992,-37.28607],[174.65975,-37.28703]],[[174.65975,-37.28703],[174.66039,-37.28748]],[[174.66039,-37.28748],[174.66172,-37.28837]],[[174.66172,-37.28837],[174.66096,-37.29066]],[[174.66096,-37.29066],[174.66102,-37.29177]],[[174.66102,-37.29177],[174.65963,-37.29243]],[[175.2913,-37.02404],[175.29107,-37.02404]],[[175.29107,-37.02404],[175.29093,-37.02405]],[[175.29093,-37.02405],[175.26785,-37.02744]],[[175.26785,-37.02744],[175.20771,-37.03006]],[[175.20771,-37.03006],[175.20271,-37.036]],[[175.20271,-37.036],[175.20697,-37.03697]],[[175.20697,-37.03697],[175.20694,-37.03714]],[[175.20694,-37.03714],[175.20668,-37.03735]],[[175.20668,-37.03735],[175.20637,-37.03746]],[[175.20637,-37.03746],[175.20594,-37.03753]],[[175.20594,-37.03753],[175.20551,-37.03757]],[[175.20551,-37.03757],[175.20487,-37.03754]],[[175.20487,-37.03754],[175.20442,-37.03756]],[[175.20442,-37.03756],[175.20417,-37.03771]],[[175.20417,-37.03771],[175.20367,-37.03838]],[[175.20367,-37.03838],[175.2031,-37.03865]],[[175.2031,-37.03865],[175.20296,-37.03865]],[[175.20296,-37.03865],[175.20279,-37.03855]],[[175.20279,-37.03855],[175.20209,-37.03874]],[[175.20209,-37.03874],[175.20173,-37.03833]],[[175.20173,-37.03833],[175.2014,-37.0382]],[[175.2014,-37.0382],[175.20124,-37.03798]],[[175.20124,-37.03798],[175.20105,-37.0379]],[[175.20105,-37.0379],[175.20005,-37.03712]],[[175.20005,-37.03712],[175.19992,-37.0367]],[[175.19992,-37.0367],[175.19957,-37.03631]],[[175.19957,-37.03631],[175.19939,-37.03627]],[[175.19939,-37.03627],[175.19884,-37.03657]],[[175.19884,-37.03657],[175.19867,-37.03664]],[[175.19867,-37.03664],[175.19809,-37.0362]],[[175.19809,-37.0362],[175.19781,-37.03621]],[[175.19781,-37.03621],[175.1977,-37.03612]],[[175.1977,-37.03612],[175.19714,-37.03588]],[[175.19714,-37.03588],[175.19689,-37.03603]],[[175.19689,-37.03603],[175.19682,-37.03665]],[[175.19682,-37.03665],[175.19655,-37.03684]],[[175.19655,-37.03684],[175.19611,-37.03678]],[[175.19611,-37.03678],[175.19599,-37.03696]],[[175.19599,-37.03696],[175.19569,-37.03703]],[[175.19569,-37.03703],[175.19517,-37.03719]],[[175.19517,-37.03719],[175.19498,-37.03766]],[[175.19498,-37.03766],[175.19461,-37.03775]],[[175.19461,-37.03775],[175.19404,-37.0382]],[[175.19404,-37.0382],[175.19359,-37.03835]],[[175.19359,-37.03835],[175.19357,-37.03864]],[[175.19357,-37.03864],[175.19287,-37.03951]],[[175.19287,-37.03951],[175.19217,-37.03949]],[[175.19217,-37.03949],[175.1918,-37.03954]],[[175.1918,-37.03954],[175.19161,-37.03951]],[[175.19161,-37.03951],[175.19134,-37.03904]],[[175.19134,-37.03904],[175.19035,-37.03863]],[[175.19035,-37.03863],[175.18976,-37.03866]],[[175.18976,-37.03866],[175.18967,-37.03897]],[[175.18967,-37.03897],[175.18931,-37.03897]],[[175.18931,-37.03897],[175.18864,-37.0392]],[[175.18864,-37.0392],[175.18847,-37.03943]],[[175.18847,-37.03943],[175.1881,-37.0394]],[[175.1881,-37.0394],[175.18726,-37.03974]],[[175.18726,-37.03974],[175.18672,-37.03983]],[[175.18672,-37.03983],[175.18617,-37.03998]],[[175.18617,-37.03998],[175.18568,-37.04001]],[[175.18568,-37.04001],[175.18476,-37.04076]],[[175.18476,-37.04076],[175.18467,-37.0407]],[[175.18467,-37.0407],[175.18447,-37.04015]],[[175.18447,-37.04015],[175.18414,-37.03993]],[[175.18414,-37.03993],[175.18318,-37.03963]],[[175.18318,-37.03963],[175.18278,-37.03934]],[[175.18278,-37.03934],[175.18287,-37.03897]],[[175.18287,-37.03897],[175.18234,-37.03756]],[[175.18234,-37.03756],[175.18211,-37.03735]],[[175.18211,-37.03735],[175.18202,-37.03709]],[[175.18202,-37.03709],[175.18172,-37.03686]],[[175.18172,-37.03686],[175.18163,-37.0365]],[[175.18163,-37.0365],[175.18102,-37.03617]],[[175.18102,-37.03617],[175.18044,-37.03612]],[[175.18044,-37.03612],[175.1801,-37.03587]],[[175.1801,-37.03587],[175.18021,-37.03547]],[[175.18021,-37.03547],[175.17948,-37.03518]],[[175.17948,-37.03518],[175.17926,-37.03478]],[[175.17926,-37.03478],[175.17895,-37.0344]],[[175.17895,-37.0344],[175.17871,-37.034]],[[175.17871,-37.034],[175.17855,-37.03294]],[[175.17855,-37.03294],[175.178,-37.03237]],[[175.178,-37.03237],[175.17767,-37.03188]],[[175.17767,-37.03188],[175.17795,-37.0307]],[[175.17795,-37.0307],[175.17851,-37.03048]],[[175.17851,-37.03048],[175.1785,-37.03025]],[[175.1785,-37.03025],[175.17685,-37.02985]],[[175.17685,-37.02985],[175.177,-37.02945]],[[175.177,-37.02945],[175.17676,-37.02874]],[[175.17676,-37.02874],[175.1765,-37.02828]],[[175.1765,-37.02828],[175.17606,-37.02795]],[[175.17606,-37.02795],[175.17607,-37.02766]],[[175.17607,-37.02766],[175.17565,-37.02744]],[[175.17565,-37.02744],[175.17498,-37.02753]],[[175.17498,-37.02753],[175.17363,-37.02701]],[[175.17363,-37.02701],[175.17305,-37.02703]],[[175.17305,-37.02703],[175.17228,-37.02621]],[[175.17228,-37.02621],[175.17191,-37.02597]],[[175.17191,-37.02597],[175.17179,-37.02556]],[[175.17179,-37.02556],[175.17016,-37.02431]],[[175.17016,-37.02431],[175.16949,-37.024]],[[175.16949,-37.024],[175.16868,-37.02334]],[[175.16868,-37.02334],[175.168,-37.0215]],[[175.168,-37.0215],[175.1677,-37.02106]],[[175.1677,-37.02106],[175.16731,-37.02098]],[[175.16731,-37.02098],[175.16708,-37.02148]],[[175.16708,-37.02148],[175.16678,-37.02159]],[[175.16678,-37.02159],[175.16605,-37.0214]],[[175.16605,-37.0214],[175.16559,-37.02074]],[[175.16559,-37.02074],[175.16558,-37.02038]],[[175.16558,-37.02038],[175.16482,-37.01943]],[[175.16482,-37.01943],[175.16489,-37.01873]],[[175.16489,-37.01873],[175.16512,-37.01826]],[[175.16512,-37.01826],[175.16498,-37.01773]],[[175.16498,-37.01773],[175.165,-37.01718]],[[175.165,-37.01718],[175.16456,-37.01666]],[[175.16456,-37.01666],[175.16399,-37.01644]],[[175.16399,-37.01644],[175.16388,-37.01608]],[[175.16388,-37.01608],[175.1632,-37.01593]],[[175.1632,-37.01593],[175.16273,-37.01567]],[[175.16273,-37.01567],[175.16224,-37.016]],[[175.16224,-37.016],[175.16159,-37.01577]],[[175.16159,-37.01577],[175.16121,-37.01587]],[[175.16121,-37.01587],[175.16078,-37.01591]],[[175.16078,-37.01591],[175.16062,-37.01639]],[[175.16062,-37.01639],[175.15999,-37.01675]],[[175.15999,-37.01675],[175.15994,-37.01713]],[[175.15994,-37.01713],[175.15912,-37.0172]],[[175.15912,-37.0172],[175.15855,-37.01775]],[[175.15855,-37.01775],[175.15816,-37.01782]],[[175.15816,-37.01782],[175.15767,-37.01812]],[[175.15767,-37.01812],[175.15715,-37.01803]],[[175.15715,-37.01803],[175.15662,-37.01814]],[[175.15662,-37.01814],[175.15626,-37.01809]],[[175.15626,-37.01809],[175.15595,-37.01834]],[[175.15595,-37.01834],[175.15575,-37.01894]],[[175.15575,-37.01894],[175.15585,-37.01932]],[[175.15585,-37.01932],[175.15549,-37.01945]],[[175.15549,-37.01945],[175.15523,-37.01979]],[[175.15523,-37.01979],[175.15495,-37.01983]],[[175.15495,-37.01983],[175.15467,-37.02014]],[[175.15467,-37.02014],[175.15438,-37.02003]],[[175.15438,-37.02003],[175.15443,-37.02032]],[[175.15443,-37.02032],[175.15434,-37.02059]],[[175.15434,-37.02059],[175.15381,-37.02057]],[[175.15381,-37.02057],[175.15251,-37.02137]],[[175.15251,-37.02137],[175.15209,-37.02156]],[[175.15209,-37.02156],[175.1523,-37.0223]],[[175.1523,-37.0223],[175.15184,-37.02345]],[[175.15184,-37.02345],[175.15192,-37.02388]],[[175.15192,-37.02388],[175.15157,-37.02458]],[[175.15157,-37.02458],[175.15238,-37.02621]],[[175.15238,-37.02621],[175.15307,-37.02672]],[[175.15307,-37.02672],[175.15345,-37.02708]],[[175.15345,-37.02708],[175.15359,-37.02801]],[[175.15359,-37.02801],[175.15448,-37.02895]],[[175.15448,-37.02895],[175.1555,-37.02926]],[[175.1555,-37.02926],[175.15563,-37.02982]],[[175.15563,-37.02982],[175.1555,-37.03039]],[[175.1555,-37.03039],[175.15553,-37.03101]],[[175.15553,-37.03101],[175.15499,-37.03154]],[[175.15499,-37.03154],[175.15495,-37.03206]],[[175.15495,-37.03206],[175.15543,-37.03247]],[[175.15543,-37.03247],[175.15498,-37.03352]],[[175.15498,-37.03352],[175.15447,-37.03419]],[[175.15447,-37.03419],[175.15413,-37.03486]],[[175.15413,-37.03486],[175.15421,-37.03514]],[[175.15421,-37.03514],[175.1538,-37.03555]],[[175.1538,-37.03555],[175.15371,-37.03671]],[[175.15371,-37.03671],[175.15311,-37.03723]],[[175.15311,-37.03723],[175.1531,-37.03733]],[[175.1531,-37.03733],[175.15476,-37.03789]],[[175.15476,-37.03789],[175.1546,-37.03832]],[[175.1546,-37.03832],[175.1536,-37.0388]],[[175.1536,-37.0388],[175.15365,-37.03903]],[[175.15365,-37.03903],[175.15392,-37.03922]],[[175.15392,-37.03922],[175.15397,-37.03967]],[[175.15397,-37.03967],[175.15371,-37.04041]],[[175.15371,-37.04041],[175.15393,-37.04208]],[[175.15393,-37.04208],[175.1535,-37.0432]],[[175.1535,-37.0432],[175.15393,-37.04429]],[[175.15393,-37.04429],[175.15448,-37.04464]],[[175.15448,-37.04464],[175.15456,-37.04517]],[[175.15456,-37.04517],[175.15503,-37.04563]],[[175.15503,-37.04563],[175.15539,-37.04625]],[[175.15539,-37.04625],[175.15562,-37.0468]],[[175.15562,-37.0468],[175.15561,-37.04704]],[[175.15561,-37.04704],[175.15526,-37.04794]],[[175.15526,-37.04794],[175.15461,-37.04832]],[[175.15461,-37.04832],[175.15451,-37.04875]],[[175.15451,-37.04875],[175.15418,-37.0491]],[[175.15418,-37.0491],[175.1541,-37.04962]],[[175.1541,-37.04962],[175.154,-37.04971]],[[175.154,-37.04971],[175.15334,-37.04985]],[[175.15334,-37.04985],[175.1529,-37.04969]],[[175.1529,-37.04969],[175.15241,-37.04976]],[[175.15241,-37.04976],[175.15206,-37.04992]],[[175.15206,-37.04992],[175.15183,-37.05014]],[[175.15183,-37.05014],[175.15119,-37.05025]],[[175.15119,-37.05025],[175.15106,-37.05078]],[[175.15106,-37.05078],[175.15104,-37.05126]],[[175.15104,-37.05126],[175.15116,-37.05151]],[[175.15116,-37.05151],[175.15098,-37.05177]],[[175.15098,-37.05177],[175.15093,-37.05203]],[[175.15093,-37.05203],[175.15118,-37.05212]],[[175.15118,-37.05212],[175.15131,-37.05253]],[[175.15131,-37.05253],[175.14986,-37.05267]],[[175.14986,-37.05267],[175.14959,-37.05296]],[[175.14959,-37.05296],[175.14983,-37.05327]],[[175.14983,-37.05327],[175.148,-37.05356]],[[175.148,-37.05356],[175.14796,-37.05397]],[[175.14796,-37.05397],[175.1481,-37.05418]],[[175.1481,-37.05418],[175.14811,-37.05472]],[[175.14811,-37.05472],[175.14819,-37.0548]],[[175.14819,-37.0548],[175.14786,-37.05473]],[[175.14786,-37.05473],[175.14759,-37.05488]],[[175.14759,-37.05488],[175.14749,-37.05528]],[[175.14749,-37.05528],[175.14766,-37.0554]],[[175.14766,-37.0554],[175.14768,-37.05616]],[[175.14768,-37.05616],[175.14799,-37.0562]],[[175.14799,-37.0562],[175.14776,-37.0566]],[[175.14776,-37.0566],[175.1482,-37.05664]],[[175.1482,-37.05664],[175.1483,-37.05687]],[[175.1483,-37.05687],[175.14791,-37.05706]],[[175.14397,-37.1069],[175.14339,-37.10793]],[[175.14339,-37.10793],[175.1434,-37.10861]],[[175.1434,-37.10861],[175.14374,-37.1092]],[[175.14374,-37.1092],[175.14612,-37.10989]],[[175.14612,-37.10989],[175.14726,-37.10992]],[[175.14726,-37.10992],[175.14754,-37.1109]],[[175.14754,-37.1109],[175.14736,-37.11122]],[[175.14736,-37.11122],[175.14723,-37.11162]],[[175.14723,-37.11162],[175.14733,-37.11252]],[[175.14733,-37.11252],[175.14792,-37.11348]],[[175.14792,-37.11348],[175.1483,-37.1151]],[[175.1483,-37.1151],[175.14819,-37.11568]],[[175.14819,-37.11568],[175.14821,-37.1163]],[[175.14821,-37.1163],[175.14834,-37.11648]],[[175.14834,-37.11648],[175.14915,-37.11695]],[[175.14915,-37.11695],[175.14952,-37.11744]],[[175.14952,-37.11744],[175.14981,-37.11812]],[[175.14981,-37.11812],[175.14987,-37.11846]],[[175.14987,-37.11846],[175.14988,-37.11943]],[[175.14988,-37.11943],[175.14998,-37.11966]],[[175.14998,-37.11966],[175.15,-37.11964]],[[175.15,-37.11964],[175.15048,-37.11989]],[[175.15048,-37.11989],[175.15118,-37.12015]],[[175.15118,-37.12015],[175.15151,-37.12008]],[[175.15151,-37.12008],[175.15251,-37.12011]],[[175.15251,-37.12011],[175.15305,-37.12045]],[[175.15305,-37.12045],[175.1542,-37.12102]],[[175.1542,-37.12102],[175.15456,-37.12275]],[[175.15456,-37.12275],[175.15409,-37.12384]],[[175.15409,-37.12384],[175.15376,-37.12415]],[[175.15376,-37.12415],[175.15383,-37.12459]],[[175.15383,-37.12459],[175.154,-37.12502]],[[175.154,-37.12502],[175.15374,-37.12539]],[[175.15374,-37.12539],[175.15349,-37.12573]],[[175.15349,-37.12573],[175.153,-37.12632]],[[175.153,-37.12632],[175.1527,-37.12684]],[[175.1527,-37.12684],[175.15256,-37.12723]],[[175.15256,-37.12723],[175.15235,-37.12745]],[[175.15235,-37.12745],[175.15278,-37.1282]],[[175.15278,-37.1282],[175.15313,-37.12841]],[[175.15313,-37.12841],[175.15329,-37.12898]],[[175.15329,-37.12898],[175.15286,-37.12937]],[[175.15286,-37.12937],[175.15289,-37.13028]],[[175.15289,-37.13028],[175.153,-37.1309]],[[175.153,-37.1309],[175.15331,-37.13119]],[[175.15331,-37.13119],[175.15343,-37.13151]],[[175.15343,-37.13151],[175.15409,-37.13206]],[[175.15409,-37.13206],[175.15399,-37.13218]],[[175.15399,-37.13218],[175.15391,-37.13267]],[[175.15391,-37.13267],[175.15372,-37.13292]],[[175.15372,-37.13292],[175.15326,-37.1333]],[[175.15326,-37.1333],[175.15338,-37.13372]],[[175.15338,-37.13372],[175.15318,-37.13426]],[[175.15318,-37.13426],[175.15334,-37.13463]],[[175.15334,-37.13463],[175.1538,-37.13485]],[[175.1538,-37.13485],[175.15367,-37.13512]],[[175.15367,-37.13512],[175.15373,-37.13536]],[[175.15373,-37.13536],[175.15366,-37.13565]],[[175.15366,-37.13565],[175.1539,-37.13611]],[[175.1539,-37.13611],[175.15385,-37.13615]],[[175.15385,-37.13615],[175.15379,-37.1365]],[[175.15379,-37.1365],[175.1536,-37.13698]],[[175.1536,-37.13698],[175.15268,-37.13822]],[[175.15268,-37.13822],[175.15278,-37.13873]],[[175.15278,-37.13873],[175.15315,-37.13926]],[[175.15315,-37.13926],[175.15302,-37.13959]],[[175.15302,-37.13959],[175.15309,-37.13972]],[[175.15309,-37.13972],[175.15286,-37.14045]],[[175.15286,-37.14045],[175.15268,-37.14178]],[[175.15268,-37.14178],[175.15224,-37.14297]],[[175.15224,-37.14297],[175.15158,-37.14287]],[[175.15158,-37.14287],[175.15075,-37.14299]],[[175.15075,-37.14299],[175.14969,-37.14274]],[[175.14969,-37.14274],[175.14884,-37.14287]],[[175.14884,-37.14287],[175.14821,-37.14284]],[[175.14821,-37.14284],[175.14525,-37.14459]],[[175.14525,-37.14459],[175.14628,-37.15233]],[[175.14628,-37.15233],[175.14416,-37.16769]],[[175.14416,-37.16769],[175.1339,-37.16819]],[[175.1339,-37.16819],[175.13523,-37.16865]],[[175.13523,-37.16865],[175.13603,-37.16898]],[[175.13603,-37.16898],[175.13661,-37.16944]],[[175.13661,-37.16944],[175.13745,-37.16992]],[[175.13745,-37.16992],[175.13787,-37.17078]],[[175.13787,-37.17078],[175.13831,-37.17144]],[[175.13831,-37.17144],[175.13864,-37.17171]],[[175.13864,-37.17171],[175.13897,-37.17178]],[[175.13897,-37.17178],[175.13962,-37.17144]],[[175.13962,-37.17144],[175.1402,-37.17185]],[[175.1402,-37.17185],[175.14035,-37.17213]],[[175.14035,-37.17213],[175.14021,-37.17222]],[[175.14021,-37.17222],[175.13988,-37.17246]],[[175.13988,-37.17246],[175.13981,-37.17264]],[[175.13981,-37.17264],[175.1399,-37.17293]],[[175.1399,-37.17293],[175.13968,-37.17319]],[[175.13968,-37.17319],[175.13978,-37.17357]],[[175.13978,-37.17357],[175.14009,-37.17378]],[[175.14009,-37.17378],[175.1405,-37.17464]],[[175.1405,-37.17464],[175.14102,-37.17516]],[[175.14102,-37.17516],[175.14112,-37.1756]],[[175.14112,-37.1756],[175.1419,-37.17569]],[[175.1419,-37.17569],[175.14191,-37.17576]],[[175.14191,-37.17576],[175.14042,-37.17597]],[[175.14042,-37.17597],[175.13167,-37.18168]],[[175.13167,-37.18168],[175.13264,-37.18538]],[[175.13264,-37.18538],[175.13225,-37.18546]],[[175.13225,-37.18546],[175.1315,-37.18599]],[[175.1315,-37.18599],[175.13074,-37.18637]],[[175.13074,-37.18637],[175.13004,-37.18641]],[[175.13004,-37.18641],[175.12876,-37.18622]],[[175.12876,-37.18622],[175.12849,-37.18606]],[[175.12849,-37.18606],[175.12802,-37.18591]],[[175.12802,-37.18591],[175.12708,-37.18637]],[[175.12708,-37.18637],[175.12653,-37.18616]],[[175.12653,-37.18616],[175.12601,-37.18615]],[[175.12601,-37.18615],[175.12518,-37.18518]],[[175.12518,-37.18518],[175.12503,-37.18494]],[[175.12503,-37.18494],[175.1233,-37.18481]],[[175.1233,-37.18481],[175.12334,-37.18507]],[[175.12334,-37.18507],[175.12333,-37.18562]],[[175.12333,-37.18562],[175.12329,-37.18587]],[[175.12329,-37.18587],[175.12312,-37.18627]],[[175.12312,-37.18627],[175.12291,-37.18658]],[[175.12291,-37.18658],[175.12254,-37.18704]],[[175.12254,-37.18704],[175.12121,-37.18853]],[[175.12121,-37.18853],[175.12106,-37.18879]],[[175.12106,-37.18879],[175.12094,-37.18916]],[[175.12094,-37.18916],[175.12086,-37.18961]],[[175.12086,-37.18961],[175.1196,-37.18931]],[[175.1196,-37.18931],[175.11749,-37.18847]],[[175.11749,-37.18847],[175.1164,-37.18816]],[[175.1164,-37.18816],[175.1157,-37.18775]],[[175.1157,-37.18775],[175.11471,-37.18729]],[[175.11471,-37.18729],[175.11438,-37.18674]],[[175.11438,-37.18674],[175.11348,-37.18642]],[[175.11348,-37.18642],[175.11029,-37.18789]],[[175.11029,-37.18789],[175.10799,-37.18471]],[[175.10799,-37.18471],[175.10522,-37.18141]],[[175.10522,-37.18141],[175.09634,-37.18223]],[[175.09634,-37.18223],[175.09617,-37.17988]],[[175.09617,-37.17988],[175.09592,-37.17991]],[[175.09592,-37.17991],[175.09575,-37.17987]],[[175.09575,-37.17987],[175.09561,-37.17976]],[[175.09561,-37.17976],[175.09558,-37.17972]],[[175.09558,-37.17972],[175.09555,-37.17961]],[[175.09555,-37.17961],[175.09551,-37.17959]],[[175.09551,-37.17959],[175.09545,-37.1796]],[[175.09545,-37.1796],[175.09541,-37.17962]],[[175.09541,-37.17962],[175.09535,-37.1797]],[[175.09535,-37.1797],[175.09531,-37.17972]],[[175.09531,-37.17972],[175.09516,-37.17967]],[[175.09516,-37.17967],[175.0951,-37.17967]],[[175.0951,-37.17967],[175.09506,-37.17973]],[[175.09506,-37.17973],[175.09504,-37.17981]],[[175.09504,-37.17981],[175.09492,-37.17988]],[[175.09492,-37.17988],[175.09485,-37.17993]],[[175.09485,-37.17993],[175.09469,-37.18009]],[[175.09469,-37.18009],[175.09461,-37.18022]],[[175.09461,-37.18022],[175.09442,-37.18036]],[[175.09442,-37.18036],[175.09424,-37.18046]],[[175.09424,-37.18046],[175.09407,-37.18053]],[[175.09407,-37.18053],[175.09384,-37.18057]],[[175.09384,-37.18057],[175.09353,-37.18054]],[[175.09353,-37.18054],[175.09321,-37.18057]],[[175.09321,-37.18057],[175.09315,-37.18061]],[[175.09315,-37.18061],[175.09307,-37.18075]],[[175.09307,-37.18075],[175.09288,-37.18082]],[[175.09288,-37.18082],[175.09279,-37.18083]],[[175.09279,-37.18083],[175.09273,-37.18082]],[[175.09273,-37.18082],[175.09262,-37.18074]],[[175.09262,-37.18074],[175.09246,-37.18071]],[[175.09246,-37.18071],[175.09237,-37.18073]],[[175.09237,-37.18073],[175.09213,-37.18081]],[[175.09213,-37.18081],[175.09204,-37.18078]],[[175.09204,-37.18078],[175.092,-37.18071]],[[175.092,-37.18071],[175.09197,-37.18053]],[[175.09197,-37.18053],[175.09199,-37.18023]],[[175.09199,-37.18023],[175.09194,-37.18016]],[[175.09194,-37.18016],[175.09186,-37.18011]],[[175.09186,-37.18011],[175.09164,-37.18007]],[[175.09164,-37.18007],[175.09155,-37.18004]],[[175.09155,-37.18004],[175.09136,-37.18005]],[[175.09136,-37.18005],[175.09128,-37.18004]],[[175.09128,-37.18004],[175.09086,-37.17982]],[[175.09086,-37.17982],[175.09077,-37.17979]],[[175.09077,-37.17979],[175.09061,-37.17978]],[[175.09061,-37.17978],[175.09036,-37.17969]],[[175.09036,-37.17969],[175.09011,-37.17966]],[[175.09011,-37.17966],[175.09001,-37.17963]],[[175.09001,-37.17963],[175.08986,-37.17954]],[[175.08986,-37.17954],[175.0898,-37.17952]],[[175.0898,-37.17952],[175.08968,-37.1795]],[[175.08968,-37.1795],[175.08956,-37.17951]],[[175.08956,-37.17951],[175.08949,-37.17955]],[[175.08949,-37.17955],[175.0894,-37.17966]],[[175.0894,-37.17966],[175.08924,-37.17997]],[[175.08924,-37.17997],[175.08922,-37.18006]],[[175.08922,-37.18006],[175.0893,-37.18014]],[[175.0893,-37.18014],[175.0893,-37.18019]],[[175.0893,-37.18019],[175.08926,-37.18023]],[[175.08926,-37.18023],[175.08908,-37.18033]],[[175.08908,-37.18033],[175.08901,-37.18038]],[[175.08901,-37.18038],[175.08894,-37.18051]],[[175.08894,-37.18051],[175.08883,-37.18064]],[[175.08883,-37.18064],[175.0888,-37.18077]],[[175.0888,-37.18077],[175.0888,-37.18093]],[[175.0888,-37.18093],[175.08874,-37.18111]],[[175.08874,-37.18111],[175.08855,-37.18143]],[[175.08855,-37.18143],[175.08842,-37.18154]],[[175.08842,-37.18154],[175.08835,-37.18157]],[[175.08835,-37.18157],[175.08828,-37.18157]],[[175.08828,-37.18157],[175.08804,-37.18149]],[[175.08804,-37.18149],[175.08793,-37.18152]],[[175.08793,-37.18152],[175.0878,-37.18162]],[[175.0878,-37.18162],[175.0874,-37.18216]],[[175.0874,-37.18216],[175.08722,-37.18223]],[[175.08722,-37.18223],[175.08706,-37.18226]],[[175.08706,-37.18226],[175.08693,-37.18226]],[[175.08693,-37.18226],[175.08667,-37.18209]],[[175.08667,-37.18209],[175.08631,-37.18199]],[[175.08631,-37.18199],[175.08609,-37.18195]],[[175.08609,-37.18195],[175.08583,-37.18194]],[[175.08583,-37.18194],[175.0853,-37.18205]],[[175.0853,-37.18205],[175.08517,-37.18204]],[[175.08517,-37.18204],[175.08477,-37.18196]],[[175.08477,-37.18196],[175.08458,-37.1819]],[[175.08458,-37.1819],[175.08436,-37.18181]],[[175.08436,-37.18181],[175.08397,-37.18158]],[[175.08397,-37.18158],[175.08382,-37.18156]],[[175.08382,-37.18156],[175.08348,-37.18158]],[[175.08348,-37.18158],[175.08325,-37.18155]],[[175.08325,-37.18155],[175.08273,-37.18157]],[[175.08273,-37.18157],[175.08222,-37.18152]],[[175.08222,-37.18152],[175.08142,-37.18158]],[[175.08142,-37.18158],[175.08133,-37.1816]],[[175.08133,-37.1816],[175.08127,-37.18164]],[[175.08127,-37.18164],[175.08124,-37.18177]],[[175.08124,-37.18177],[175.08127,-37.18187]],[[175.08127,-37.18187],[175.08136,-37.18218]],[[175.08136,-37.18218],[175.08144,-37.18234]],[[175.08144,-37.18234],[175.08157,-37.1825]],[[175.08157,-37.1825],[175.08163,-37.18253]],[[175.08163,-37.18253],[175.08169,-37.18254]],[[175.08169,-37.18254],[175.08187,-37.18254]],[[175.08187,-37.18254],[175.0824,-37.18245]],[[175.0824,-37.18245],[175.08265,-37.18237]],[[175.08265,-37.18237],[175.08291,-37.18226]],[[175.08291,-37.18226],[175.08297,-37.18225]],[[175.08297,-37.18225],[175.08313,-37.18226]],[[175.08313,-37.18226],[175.08318,-37.18228]],[[175.08318,-37.18228],[175.08325,-37.18235]],[[175.08325,-37.18235],[175.08329,-37.18242]],[[175.08329,-37.18242],[175.0833,-37.18253]],[[175.0833,-37.18253],[175.08317,-37.18269]],[[175.08317,-37.18269],[175.08243,-37.18312]],[[175.08243,-37.18312],[175.08231,-37.18324]],[[175.08231,-37.18324],[175.08229,-37.18331]],[[175.08229,-37.18331],[175.08231,-37.18347]],[[175.08231,-37.18347],[175.08243,-37.18368]],[[175.08243,-37.18368],[175.08254,-37.18377]],[[175.08254,-37.18377],[175.08291,-37.184]],[[175.08291,-37.184],[175.08314,-37.18416]],[[175.08314,-37.18416],[175.08331,-37.18435]],[[175.08331,-37.18435],[175.08336,-37.18445]],[[175.08336,-37.18445],[175.08341,-37.18464]],[[175.08341,-37.18464],[175.0834,-37.18474]],[[175.0834,-37.18474],[175.0833,-37.18477]],[[175.0833,-37.18477],[175.08313,-37.18474]],[[175.08313,-37.18474],[175.083,-37.1847]],[[175.083,-37.1847],[175.08284,-37.18468]],[[175.08284,-37.18468],[175.08269,-37.18472]],[[175.08269,-37.18472],[175.08248,-37.18488]],[[175.08248,-37.18488],[175.08236,-37.18509]],[[175.08236,-37.18509],[175.08224,-37.18527]],[[175.08224,-37.18527],[175.08195,-37.18543]],[[175.08195,-37.18543],[175.08175,-37.1855]],[[175.08175,-37.1855],[175.08155,-37.18562]],[[175.08155,-37.18562],[175.08137,-37.18583]],[[175.08137,-37.18583],[175.08119,-37.18613]],[[175.08119,-37.18613],[175.08113,-37.18636]],[[175.08113,-37.18636],[175.08108,-37.18668]],[[175.08108,-37.18668],[175.08109,-37.18676]],[[175.08109,-37.18676],[175.08114,-37.18683]],[[175.08114,-37.18683],[175.08124,-37.18685]],[[175.08124,-37.18685],[175.08153,-37.18689]],[[175.08153,-37.18689],[175.08178,-37.18696]],[[175.08178,-37.18696],[175.08183,-37.187]],[[175.08183,-37.187],[175.08216,-37.1875]],[[175.08216,-37.1875],[175.08228,-37.18757]],[[175.08228,-37.18757],[175.08314,-37.18783]],[[175.08314,-37.18783],[175.08347,-37.18819]],[[175.08347,-37.18819],[175.08372,-37.18852]],[[175.08372,-37.18852],[175.08405,-37.18911]],[[175.08405,-37.18911],[175.08414,-37.1892]],[[175.08414,-37.1892],[175.08435,-37.18924]],[[175.08435,-37.18924],[175.08481,-37.18926]],[[175.08481,-37.18926],[175.08494,-37.18927]],[[175.08494,-37.18927],[175.08507,-37.1893]],[[175.08507,-37.1893],[175.08546,-37.18951]],[[175.08546,-37.18951],[175.08558,-37.18959]],[[175.08558,-37.18959],[175.08569,-37.18971]],[[175.08569,-37.18971],[175.08575,-37.18981]],[[175.08575,-37.18981],[175.08577,-37.18999]],[[175.08577,-37.18999],[175.08575,-37.19011]],[[175.08575,-37.19011],[175.0857,-37.19021]],[[175.0857,-37.19021],[175.08558,-37.19033]],[[175.08558,-37.19033],[175.08543,-37.19042]],[[175.08543,-37.19042],[175.08515,-37.19057]],[[175.08515,-37.19057],[175.08501,-37.19066]],[[175.08501,-37.19066],[175.08475,-37.19087]],[[175.08475,-37.19087],[175.08468,-37.19095]],[[175.08468,-37.19095],[175.08449,-37.19126]],[[175.08449,-37.19126],[175.08442,-37.19143]],[[175.08442,-37.19143],[175.08442,-37.19155]],[[175.08442,-37.19155],[175.0845,-37.19169]],[[175.0845,-37.19169],[175.08461,-37.19181]],[[175.08461,-37.19181],[175.08475,-37.19191]],[[175.08475,-37.19191],[175.08493,-37.192]],[[175.08493,-37.192],[175.08509,-37.19206]],[[175.08509,-37.19206],[175.08597,-37.19221]],[[175.08597,-37.19221],[175.08605,-37.19229]],[[175.08605,-37.19229],[175.08606,-37.19235]],[[175.08606,-37.19235],[175.08616,-37.19235]],[[175.08616,-37.19235],[175.08628,-37.19231]],[[175.08628,-37.19231],[175.0863,-37.1924]],[[175.0863,-37.1924],[175.08627,-37.19246]],[[175.08627,-37.19246],[175.08622,-37.19252]],[[175.08622,-37.19252],[175.08608,-37.19258]],[[175.08608,-37.19258],[175.08593,-37.19261]],[[175.08593,-37.19261],[175.08576,-37.19264]],[[175.08576,-37.19264],[175.08554,-37.19264]],[[175.08554,-37.19264],[175.08511,-37.19259]],[[175.08511,-37.19259],[175.0849,-37.19259]],[[175.0849,-37.19259],[175.08476,-37.19261]],[[175.08476,-37.19261],[175.08472,-37.19243]],[[175.08472,-37.19243],[175.08461,-37.19214]],[[175.08461,-37.19214],[175.07392,-37.19471]],[[175.07392,-37.19471],[175.07381,-37.19475]],[[175.07381,-37.19475],[175.07221,-37.19229]],[[175.07221,-37.19229],[175.07087,-37.19222]],[[175.07087,-37.19222],[175.06984,-37.19126]],[[175.06984,-37.19126],[175.06921,-37.19133]],[[175.06921,-37.19133],[175.06872,-37.1917]],[[175.06872,-37.1917],[175.0667,-37.1909]],[[175.0667,-37.1909],[175.06609,-37.18188]],[[175.06609,-37.18188],[175.06206,-37.18146]],[[175.06206,-37.18146],[175.06098,-37.18139]],[[175.06098,-37.18139],[175.05982,-37.1813]],[[175.05982,-37.1813],[175.05968,-37.18124]],[[175.05968,-37.18124],[175.05873,-37.18043]],[[175.05873,-37.18043],[175.05855,-37.1803]],[[175.05855,-37.1803],[175.05838,-37.18027]],[[175.05838,-37.18027],[175.05605,-37.18067]],[[175.05605,-37.18067],[175.05447,-37.18079]],[[175.05447,-37.18079],[175.05059,-37.18184]],[[175.05059,-37.18184],[175.04824,-37.18227]],[[175.04824,-37.18227],[175.04775,-37.18268]],[[175.04775,-37.18268],[175.0466,-37.18296]],[[175.0466,-37.18296],[175.04604,-37.18289]],[[175.14791,-37.05706],[175.14757,-37.05743]],[[175.14757,-37.05743],[175.14722,-37.05747]],[[175.14722,-37.05747],[175.14693,-37.0578]],[[175.14693,-37.0578],[175.14671,-37.05828]],[[175.14671,-37.05828],[175.14706,-37.05844]],[[175.14706,-37.05844],[175.14707,-37.05876]],[[175.14707,-37.05876],[175.1468,-37.05891]],[[175.1468,-37.05891],[175.14679,-37.05913]],[[175.14679,-37.05913],[175.14684,-37.05956]],[[175.14684,-37.05956],[175.14671,-37.05981]],[[175.14671,-37.05981],[175.1467,-37.06006]],[[175.1467,-37.06006],[175.14627,-37.06024]],[[175.14627,-37.06024],[175.14647,-37.06048]],[[175.14647,-37.06048],[175.14653,-37.06063]],[[175.14653,-37.06063],[175.14638,-37.06097]],[[175.14638,-37.06097],[175.14654,-37.0612]],[[175.14654,-37.0612],[175.14679,-37.06208]],[[175.14679,-37.06208],[175.14706,-37.0622]],[[175.14706,-37.0622],[175.14714,-37.06235]],[[175.14714,-37.06235],[175.14658,-37.06323]],[[175.14658,-37.06323],[175.14691,-37.06335]],[[175.14691,-37.06335],[175.14681,-37.06373]],[[175.14681,-37.06373],[175.1469,-37.06399]],[[175.1469,-37.06399],[175.147,-37.06501]],[[175.147,-37.06501],[175.14754,-37.06498]],[[175.14754,-37.06498],[175.14744,-37.06531]],[[175.14744,-37.06531],[175.14813,-37.06567]],[[175.14813,-37.06567],[175.1473,-37.06606]],[[175.1473,-37.06606],[175.14776,-37.06665]],[[175.14776,-37.06665],[175.14804,-37.06684]],[[175.14804,-37.06684],[175.14878,-37.06712]],[[175.14878,-37.06712],[175.14904,-37.06729]],[[175.14904,-37.06729],[175.1479,-37.06777]],[[175.1479,-37.06777],[175.14707,-37.06851]],[[175.14707,-37.06851],[175.14547,-37.06844]],[[175.14547,-37.06844],[175.1463,-37.06895]],[[175.1463,-37.06895],[175.14638,-37.06922]],[[175.14638,-37.06922],[175.14574,-37.06948]],[[175.14574,-37.06948],[175.14671,-37.0698]],[[175.14671,-37.0698],[175.14712,-37.0701]],[[175.14712,-37.0701],[175.14757,-37.07014]],[[175.14757,-37.07014],[175.14768,-37.07021]],[[175.14768,-37.07021],[175.14733,-37.07048]],[[175.14733,-37.07048],[175.14682,-37.07075]],[[175.14682,-37.07075],[175.14659,-37.07123]],[[175.14659,-37.07123],[175.14711,-37.07102]],[[175.14711,-37.07102],[175.1476,-37.07095]],[[175.1476,-37.07095],[175.14777,-37.07122]],[[175.14777,-37.07122],[175.14794,-37.07092]],[[175.14794,-37.07092],[175.14888,-37.0708]],[[175.14888,-37.0708],[175.14937,-37.07078]],[[175.14937,-37.07078],[175.14998,-37.07042]],[[175.14998,-37.07042],[175.15028,-37.07029]],[[175.15028,-37.07029],[175.15046,-37.0703]],[[175.15046,-37.0703],[175.14834,-37.07592]],[[175.14834,-37.07592],[175.14597,-37.07593]],[[175.14597,-37.07593],[175.14596,-37.07624]],[[175.14596,-37.07624],[175.1459,-37.07639]],[[175.1459,-37.07639],[175.14579,-37.07651]],[[175.14579,-37.07651],[175.14569,-37.0768]],[[175.14569,-37.0768],[175.14568,-37.0769]],[[175.14568,-37.0769],[175.1455,-37.0775]],[[175.1455,-37.0775],[175.14536,-37.07769]],[[175.14536,-37.07769],[175.14524,-37.07805]],[[175.14524,-37.07805],[175.14509,-37.07823]],[[175.14509,-37.07823],[175.14506,-37.07832]],[[175.14506,-37.07832],[175.14503,-37.07858]],[[175.14503,-37.07858],[175.14497,-37.07872]],[[175.14497,-37.07872],[175.1448,-37.07893]],[[175.1448,-37.07893],[175.14475,-37.07905]],[[175.14475,-37.07905],[175.14471,-37.07925]],[[175.14471,-37.07925],[175.14471,-37.07955]],[[175.14471,-37.07955],[175.14462,-37.07978]],[[175.14462,-37.07978],[175.14455,-37.0801]],[[175.14455,-37.0801],[175.14448,-37.08026]],[[175.14448,-37.08026],[175.14437,-37.08067]],[[175.14437,-37.08067],[175.14436,-37.08078]],[[175.14436,-37.08078],[175.14436,-37.0812]],[[175.14436,-37.0812],[175.14438,-37.08136]],[[175.14438,-37.08136],[175.14437,-37.08138]],[[175.14437,-37.08138],[175.14436,-37.08166]],[[175.14436,-37.08166],[175.14428,-37.08199]],[[175.14428,-37.08199],[175.14413,-37.08233]],[[175.14413,-37.08233],[175.14408,-37.08255]],[[175.14408,-37.08255],[175.14414,-37.08293]],[[175.14414,-37.08293],[175.1442,-37.08315]],[[175.1442,-37.08315],[175.14421,-37.08324]],[[175.14421,-37.08324],[175.14427,-37.08348]],[[175.14427,-37.08348],[175.14429,-37.08372]],[[175.14429,-37.08372],[175.14436,-37.0839]],[[175.14436,-37.0839],[175.14452,-37.08486]],[[175.14452,-37.08486],[175.14458,-37.08511]],[[175.14458,-37.08511],[175.14461,-37.0858]],[[175.14461,-37.0858],[175.14464,-37.08614]],[[175.14464,-37.08614],[175.14462,-37.08624]],[[175.14462,-37.08624],[175.14462,-37.08641]],[[175.14462,-37.08641],[175.14453,-37.08684]],[[175.14453,-37.08684],[175.14452,-37.08716]],[[175.14452,-37.08716],[175.14458,-37.08732]],[[175.14458,-37.08732],[175.14463,-37.08741]],[[175.14463,-37.08741],[175.14476,-37.08757]],[[175.14476,-37.08757],[175.14492,-37.08772]],[[175.14492,-37.08772],[175.14518,-37.08793]],[[175.14518,-37.08793],[175.14557,-37.08815]],[[175.14557,-37.08815],[175.1458,-37.08831]],[[175.1458,-37.08831],[175.14607,-37.08856]],[[175.14607,-37.08856],[175.14615,-37.08872]],[[175.14615,-37.08872],[175.14633,-37.08929]],[[175.14633,-37.08929],[175.14641,-37.08973]],[[175.14641,-37.08973],[175.1464,-37.0898]],[[175.1464,-37.0898],[175.14632,-37.08992]],[[175.14632,-37.08992],[175.14591,-37.09015]],[[175.14591,-37.09015],[175.14536,-37.0905]],[[175.14536,-37.0905],[175.14504,-37.0908]],[[175.14504,-37.0908],[175.14476,-37.09103]],[[175.14476,-37.09103],[175.14453,-37.09127]],[[175.14453,-37.09127],[175.14434,-37.09151]],[[175.14434,-37.09151],[175.14432,-37.09157]],[[175.14432,-37.09157],[175.14409,-37.09176]],[[175.14409,-37.09176],[175.14402,-37.09186]],[[175.14402,-37.09186],[175.14386,-37.09224]],[[175.14386,-37.09224],[175.14368,-37.09248]],[[175.14368,-37.09248],[175.14364,-37.09261]],[[175.14364,-37.09261],[175.14379,-37.09321]],[[175.14379,-37.09321],[175.14385,-37.09337]],[[175.14385,-37.09337],[175.14383,-37.0935]],[[175.14383,-37.0935],[175.14378,-37.09356]],[[175.14378,-37.09356],[175.14369,-37.09359]],[[175.14369,-37.09359],[175.1436,-37.09366]],[[175.1436,-37.09366],[175.14346,-37.09369]],[[175.14346,-37.09369],[175.1434,-37.09373]],[[175.1434,-37.09373],[175.14326,-37.09382]],[[175.14326,-37.09382],[175.14319,-37.09389]],[[175.14319,-37.09389],[175.1431,-37.09404]],[[175.1431,-37.09404],[175.14304,-37.0943]],[[175.14304,-37.0943],[175.14297,-37.09446]],[[175.14297,-37.09446],[175.14288,-37.09477]],[[175.14288,-37.09477],[175.14278,-37.09492]],[[175.14278,-37.09492],[175.14266,-37.09519]],[[175.14266,-37.09519],[175.14268,-37.09547]],[[175.14268,-37.09547],[175.14276,-37.09576]],[[175.14276,-37.09576],[175.14274,-37.0959]],[[175.14274,-37.0959],[175.14264,-37.09609]],[[175.14264,-37.09609],[175.14268,-37.09654]],[[175.14268,-37.09654],[175.14263,-37.09686]],[[175.14263,-37.09686],[175.14267,-37.09698]],[[175.14267,-37.09698],[175.14286,-37.09715]],[[175.14286,-37.09715],[175.14285,-37.0973]],[[175.14285,-37.0973],[175.14274,-37.0974]],[[175.14274,-37.0974],[175.14264,-37.09755]],[[175.14264,-37.09755],[175.14249,-37.0977]],[[175.14249,-37.0977],[175.14236,-37.09791]],[[175.14236,-37.09791],[175.1422,-37.09812]],[[175.1422,-37.09812],[175.14183,-37.09845]],[[175.14183,-37.09845],[175.14168,-37.0985]],[[175.14168,-37.0985],[175.14139,-37.09862]],[[175.14139,-37.09862],[175.14123,-37.09866]],[[175.14123,-37.09866],[175.14098,-37.09869]],[[175.14098,-37.09869],[175.14082,-37.09873]],[[175.14082,-37.09873],[175.1412,-37.0988]],[[175.1412,-37.0988],[175.14155,-37.09896]],[[175.14155,-37.09896],[175.14199,-37.09958]],[[175.14199,-37.09958],[175.14281,-37.10001]],[[175.14281,-37.10001],[175.1446,-37.10134]],[[175.1446,-37.10134],[175.14449,-37.10305]],[[175.14449,-37.10305],[175.14432,-37.10389]],[[175.14432,-37.10389],[175.14398,-37.10452]],[[175.14398,-37.10452],[175.14431,-37.10548]],[[175.14431,-37.10548],[175.14397,-37.1069]],[[174.80478,-37.22942],[174.80461,-37.2295]],[[174.80461,-37.2295],[174.80425,-37.22962]],[[174.80425,-37.22962],[174.80356,-37.23021]],[[174.80356,-37.23021],[174.80261,-37.23056]],[[174.80261,-37.23056],[174.80152,-37.23091]],[[174.80152,-37.23091],[174.80119,-37.23116]],[[174.80119,-37.23116],[174.80098,-37.23156]],[[174.80098,-37.23156],[174.80105,-37.23232]],[[174.80105,-37.23232],[174.80086,-37.23249]],[[174.80086,-37.23249],[174.79963,-37.2331]],[[174.79963,-37.2331],[174.79846,-37.2335]],[[174.79846,-37.2335],[174.7973,-37.2338]],[[174.7973,-37.2338],[174.7957,-37.23409]],[[174.7957,-37.23409],[174.79467,-37.23402]],[[174.79467,-37.23402],[174.79338,-37.23408]],[[174.79338,-37.23408],[174.79278,-37.23436]],[[174.79278,-37.23436],[174.79256,-37.23452]],[[174.79256,-37.23452],[174.79242,-37.23648]],[[174.79242,-37.23648],[174.79206,-37.2374]],[[174.79206,-37.2374],[174.79215,-37.23909]],[[174.79215,-37.23909],[174.79156,-37.23977]],[[174.79156,-37.23977],[174.79068,-37.23985]],[[174.79068,-37.23985],[174.78806,-37.24004]],[[174.78806,-37.24004],[174.78766,-37.24019]],[[174.78766,-37.24019],[174.78547,-37.24122]],[[174.78547,-37.24122],[174.78455,-37.24189]],[[174.78455,-37.24189],[174.78397,-37.24195]],[[174.78397,-37.24195],[174.77827,-37.24119]],[[174.77827,-37.24119],[174.77749,-37.24126]],[[174.77749,-37.24126],[174.7754,-37.24199]],[[174.7754,-37.24199],[174.7736,-37.24303]],[[174.7736,-37.24303],[174.77351,-37.24308]],[[174.77351,-37.24308],[174.77342,-37.24309]],[[174.77342,-37.24309],[174.77315,-37.24304]],[[174.77315,-37.24304],[174.77288,-37.24345]],[[174.77288,-37.24345],[174.77265,-37.24362]],[[174.77265,-37.24362],[174.77141,-37.24463]],[[174.77141,-37.24463],[174.7703,-37.24651]],[[174.7703,-37.24651],[174.7694,-37.24755]],[[174.7694,-37.24755],[174.76925,-37.2477]],[[174.76925,-37.2477],[174.76521,-37.24857]],[[174.76521,-37.24857],[174.76218,-37.24974]],[[174.76218,-37.24974],[174.7604,-37.25068]],[[174.7604,-37.25068],[174.75713,-37.25145]],[[174.75713,-37.25145],[174.75684,-37.25156]],[[174.97322,-37.19476],[174.96652,-37.19643]],[[174.96652,-37.19643],[174.96645,-37.19644]],[[174.96645,-37.19644],[174.96624,-37.19657]],[[174.96624,-37.19657],[174.96557,-37.19711]],[[174.96557,-37.19711],[174.96514,-37.1974]],[[174.96514,-37.1974],[174.96482,-37.1976]],[[174.96482,-37.1976],[174.96444,-37.19776]],[[174.96444,-37.19776],[174.96406,-37.19785]],[[174.96406,-37.19785],[174.9635,-37.19794]],[[174.9635,-37.19794],[174.95874,-37.19843]],[[174.95874,-37.19843],[174.95733,-37.19856]],[[174.95733,-37.19856],[174.95687,-37.19858]],[[174.95687,-37.19858],[174.95401,-37.1968]],[[174.95401,-37.1968],[174.95261,-37.19616]],[[174.95261,-37.19616],[174.95086,-37.19564]],[[174.95086,-37.19564],[174.95025,-37.19553]],[[174.95025,-37.19553],[174.94957,-37.19549]],[[174.94957,-37.19549],[174.94859,-37.1957]],[[174.94859,-37.1957],[174.94824,-37.19573]],[[174.89413,-37.23189],[174.8941,-37.23189]],[[174.8941,-37.23189],[174.88927,-37.2333]],[[174.88927,-37.2333],[174.8871,-37.23096]],[[174.8871,-37.23096],[174.88679,-37.23063]],[[174.88679,-37.23063],[174.883,-37.23285]],[[174.883,-37.23285],[174.88267,-37.23252]],[[174.88267,-37.23252],[174.87909,-37.23462]],[[174.87909,-37.23462],[174.88035,-37.23592]],[[174.88035,-37.23592],[174.88145,-37.23698]],[[174.88145,-37.23698],[174.87646,-37.24013]],[[174.87646,-37.24013],[174.87566,-37.24065]],[[174.87566,-37.24065],[174.87511,-37.23986]],[[174.87511,-37.23986],[174.87473,-37.23944]],[[174.87473,-37.23944],[174.8741,-37.23898]],[[174.8741,-37.23898],[174.87357,-37.2387]],[[174.87357,-37.2387],[174.87255,-37.23833]],[[174.87255,-37.23833],[174.86895,-37.24499]],[[174.86895,-37.24499],[174.86755,-37.24526]],[[174.86755,-37.24526],[174.86366,-37.24385]],[[174.86366,-37.24385],[174.86176,-37.24406]],[[174.86176,-37.24406],[174.85887,-37.24543]],[[174.85887,-37.24543],[174.85534,-37.24423]],[[174.85534,-37.24423],[174.85175,-37.25083]],[[174.85175,-37.25083],[174.85036,-37.25117]],[[174.85036,-37.25117],[174.84845,-37.24968]],[[174.84845,-37.24968],[174.84829,-37.24964]],[[174.84829,-37.24964],[174.84781,-37.24706]],[[174.84781,-37.24706],[174.8484,-37.2456]],[[174.8484,-37.2456],[174.84947,-37.24307]],[[174.84947,-37.24307],[174.851,-37.23965]],[[174.851,-37.23965],[174.85087,-37.23964]],[[174.85087,-37.23964],[174.84645,-37.23853]],[[174.84645,-37.23853],[174.84812,-37.2342]],[[174.84812,-37.2342],[174.84365,-37.23309]],[[174.84365,-37.23309],[174.84357,-37.23306]],[[174.84357,-37.23306],[174.8435,-37.23412]],[[174.8435,-37.23412],[174.84347,-37.23436]],[[174.84347,-37.23436],[174.8434,-37.23462]],[[174.8434,-37.23462],[174.84332,-37.2348]],[[174.84332,-37.2348],[174.84295,-37.23545]],[[174.84295,-37.23545],[174.84288,-37.23534]],[[174.84288,-37.23534],[174.83736,-37.23398]],[[174.83736,-37.23398],[174.83694,-37.23388]],[[174.83694,-37.23388],[174.83478,-37.23336]],[[174.83478,-37.23336],[174.83084,-37.23239]],[[174.83084,-37.23239],[174.83073,-37.23237]],[[174.83073,-37.23237],[174.8307,-37.23241]],[[174.8307,-37.23241],[174.82955,-37.23257]],[[174.82955,-37.23257],[174.82949,-37.23251]],[[174.82949,-37.23251],[174.82992,-37.23189]],[[174.82992,-37.23189],[174.82744,-37.23117]],[[174.82744,-37.23117],[174.82703,-37.23163]],[[174.82703,-37.23163],[174.8265,-37.23219]],[[174.8265,-37.23219],[174.82617,-37.23193]],[[174.82617,-37.23193],[174.82569,-37.23178]],[[174.82569,-37.23178],[174.8237,-37.23261]],[[174.8237,-37.23261],[174.82184,-37.23189]],[[174.82184,-37.23189],[174.81824,-37.23051]],[[174.81824,-37.23051],[174.81835,-37.23036]],[[174.81835,-37.23036],[174.81817,-37.23028]],[[174.81817,-37.23028],[174.81734,-37.2297]],[[174.81734,-37.2297],[174.8169,-37.22942]],[[174.8169,-37.22942],[174.81625,-37.22914]],[[174.81625,-37.22914],[174.81549,-37.22863]],[[174.81549,-37.22863],[174.81475,-37.22878]],[[174.81475,-37.22878],[174.81443,-37.22865]],[[174.81443,-37.22865],[174.81418,-37.22846]],[[174.81418,-37.22846],[174.81377,-37.22836]],[[174.81377,-37.22836],[174.81363,-37.22906]],[[174.81363,-37.22906],[174.81166,-37.23093]],[[174.81166,-37.23093],[174.81021,-37.22997]],[[174.81021,-37.22997],[174.81023,-37.22994]],[[174.81023,-37.22994],[174.80919,-37.22943]],[[174.80919,-37.22943],[174.80781,-37.22903]],[[174.80781,-37.22903],[174.80842,-37.22745]],[[174.80842,-37.22745],[174.80754,-37.22723]],[[174.80754,-37.22723],[174.8064,-37.22691]],[[174.8064,-37.22691],[174.80632,-37.22684]],[[174.80632,-37.22684],[174.80478,-37.22942]],[[175.04604,-37.18289],[175.04542,-37.18281]],[[175.04542,-37.18281],[175.04529,-37.18282]],[[175.04529,-37.18282],[175.04536,-37.18386]],[[175.04536,-37.18386],[175.04545,-37.18396]],[[175.04545,-37.18396],[175.04557,-37.18404]],[[175.04557,-37.18404],[175.04516,-37.18777]],[[175.04516,-37.18777],[175.04504,-37.1878]],[[175.04504,-37.1878],[175.04502,-37.18812]],[[175.04502,-37.18812],[175.03787,-37.18844]],[[175.03787,-37.18844],[175.03785,-37.19039]],[[175.03785,-37.19039],[175.03777,-37.19146]],[[175.03777,-37.19146],[175.03755,-37.19197]],[[175.03755,-37.19197],[175.03732,-37.19206]],[[175.03732,-37.19206],[175.0363,-37.19199]],[[175.0363,-37.19199],[175.03562,-37.19095]],[[175.03562,-37.19095],[175.03473,-37.19095]],[[175.03473,-37.19095],[175.03363,-37.19101]],[[175.03363,-37.19101],[175.03267,-37.19079]],[[175.03267,-37.19079],[175.03253,-37.19051]],[[175.03253,-37.19051],[175.03237,-37.19035]],[[175.03237,-37.19035],[175.03256,-37.19016]],[[175.03256,-37.19016],[175.03265,-37.18997]],[[175.03265,-37.18997],[175.03272,-37.18961]],[[175.03272,-37.18961],[175.03289,-37.18915]],[[175.03289,-37.18915],[175.0326,-37.18869]],[[175.0326,-37.18869],[175.02916,-37.18885]],[[175.02916,-37.18885],[175.02949,-37.19386]],[[175.02949,-37.19386],[175.02963,-37.19616]],[[175.02963,-37.19616],[175.0273,-37.19635]],[[175.0273,-37.19635],[175.02757,-37.1968]],[[175.02757,-37.1968],[175.0205,-37.19956]],[[175.0205,-37.19956],[175.02044,-37.19961]],[[175.02044,-37.19961],[175.01925,-37.19777]],[[175.01925,-37.19777],[175.01837,-37.19566]],[[175.01837,-37.19566],[175.01835,-37.1955]],[[175.01835,-37.1955],[175.018,-37.1959]],[[175.018,-37.1959],[175.01506,-37.19645]],[[175.01506,-37.19645],[175.01419,-37.19692]],[[175.01419,-37.19692],[175.01346,-37.19749]],[[175.01346,-37.19749],[175.01316,-37.19844]],[[175.01316,-37.19844],[175.01238,-37.19908]],[[175.01238,-37.19908],[175.01112,-37.20115]],[[175.01112,-37.20115],[175.00968,-37.2016]],[[175.00968,-37.2016],[175.00904,-37.20236]],[[175.00904,-37.20236],[175.00752,-37.20298]],[[175.00752,-37.20298],[175.00726,-37.20391]],[[175.00726,-37.20391],[175.00732,-37.2051]],[[175.00732,-37.2051],[175.00707,-37.20546]],[[175.00707,-37.20546],[175.00684,-37.2055]],[[175.00684,-37.2055],[175.0037,-37.20671]],[[175.0037,-37.20671],[175.0041,-37.20737]],[[175.0041,-37.20737],[174.99713,-37.21152]],[[174.99713,-37.21152],[174.99026,-37.21659]],[[174.99026,-37.21659],[174.98885,-37.21531]],[[174.98885,-37.21531],[174.98126,-37.20818]],[[174.98126,-37.20818],[174.98121,-37.20812]],[[174.98121,-37.20812],[174.98075,-37.20836]],[[174.98075,-37.20836],[174.98025,-37.20886]],[[174.98025,-37.20886],[174.97964,-37.20917]],[[174.97964,-37.20917],[174.97502,-37.20107]],[[174.97502,-37.20107],[174.97325,-37.19484]],[[174.97325,-37.19484],[174.97322,-37.19476]],[[174.94799,-37.19574],[174.9482,-37.19665]],[[174.9482,-37.19665],[174.94837,-37.19693]],[[174.94837,-37.19693],[174.94859,-37.19804]],[[174.94859,-37.19804],[174.94193,-37.1991]],[[174.94193,-37.1991],[174.94068,-37.19927]],[[174.94068,-37.19927],[174.93784,-37.19971]],[[174.93784,-37.19971],[174.93812,-37.20083]],[[174.93812,-37.20083],[174.9385,-37.20236]],[[174.9385,-37.20236],[174.93645,-37.20326]],[[174.93645,-37.20326],[174.92994,-37.20623]],[[174.92994,-37.20623],[174.93424,-37.21118]],[[174.93424,-37.21118],[174.93625,-37.21454]],[[174.93625,-37.21454],[174.93645,-37.21465]],[[174.93645,-37.21465],[174.93493,-37.21676]],[[174.93493,-37.21676],[174.93203,-37.21903]],[[174.93203,-37.21903],[174.93085,-37.22458]],[[174.93085,-37.22458],[174.93096,-37.22461]],[[174.93096,-37.22461],[174.93254,-37.225]],[[174.93254,-37.225],[174.93141,-37.22677]],[[174.93141,-37.22677],[174.93176,-37.22681]],[[174.93176,-37.22681],[174.93142,-37.22893]],[[174.93142,-37.22893],[174.93277,-37.23163]],[[174.93277,-37.23163],[174.93066,-37.2323]],[[174.93066,-37.2323],[174.93076,-37.23311]],[[174.93076,-37.23311],[174.9278,-37.23294]],[[174.9278,-37.23294],[174.92785,-37.2328]],[[174.92785,-37.2328],[174.92779,-37.23211]],[[174.92779,-37.23211],[174.92786,-37.23139]],[[174.92786,-37.23139],[174.92785,-37.23115]],[[174.92785,-37.23115],[174.9274,-37.23112]],[[174.9274,-37.23112],[174.92748,-37.23211]],[[174.92748,-37.23211],[174.92747,-37.23228]],[[174.92747,-37.23228],[174.92653,-37.23217]],[[174.92653,-37.23217],[174.92586,-37.23198]],[[174.92586,-37.23198],[174.92597,-37.23182]],[[174.92597,-37.23182],[174.926,-37.23173]],[[174.926,-37.23173],[174.92602,-37.23161]],[[174.92602,-37.23161],[174.9259,-37.23139]],[[174.9259,-37.23139],[174.9257,-37.23119]],[[174.9257,-37.23119],[174.9256,-37.23106]],[[174.9256,-37.23106],[174.92557,-37.23089]],[[174.92557,-37.23089],[174.92557,-37.23071]],[[174.92557,-37.23071],[174.92559,-37.23066]],[[174.92559,-37.23066],[174.92569,-37.23051]],[[174.92569,-37.23051],[174.92569,-37.23048]],[[174.92569,-37.23048],[174.92568,-37.23038]],[[174.92568,-37.23038],[174.92429,-37.23081]],[[174.92429,-37.23081],[174.92398,-37.23101]],[[174.92398,-37.23101],[174.92384,-37.23113]],[[174.92384,-37.23113],[174.92375,-37.23124]],[[174.92375,-37.23124],[174.92363,-37.23152]],[[174.92363,-37.23152],[174.92355,-37.23175]],[[174.92355,-37.23175],[174.92359,-37.23308]],[[174.92359,-37.23308],[174.92321,-37.23397]],[[174.92321,-37.23397],[174.92305,-37.23427]],[[174.92305,-37.23427],[174.92275,-37.23456]],[[174.92275,-37.23456],[174.9222,-37.23493]],[[174.9222,-37.23493],[174.91932,-37.23658]],[[174.91932,-37.23658],[174.91919,-37.23644]],[[174.91919,-37.23644],[174.91903,-37.23618]],[[174.91903,-37.23618],[174.91702,-37.23388]],[[174.91702,-37.23388],[174.91658,-37.23107]],[[174.91658,-37.23107],[174.91645,-37.23083]],[[174.91645,-37.23083],[174.91621,-37.23085]],[[174.91621,-37.23085],[174.91357,-37.23204]],[[174.91357,-37.23204],[174.91028,-37.23211]],[[174.91028,-37.23211],[174.909,-37.23168]],[[174.909,-37.23168],[174.90852,-37.23162]],[[174.90852,-37.23162],[174.89715,-37.23183]],[[174.89715,-37.23183],[174.89413,-37.23189]],[[174.94824,-37.19573],[174.94799,-37.19574]],[[174.75684,-37.25156],[174.75716,-37.25162]],[[174.75716,-37.25162],[174.75713,-37.25171]],[[174.75713,-37.25171],[174.75604,-37.25407]],[[174.75604,-37.25407],[174.755,-37.25445]],[[174.755,-37.25445],[174.75211,-37.25658]],[[174.75211,-37.25658],[174.75177,-37.25683]],[[174.75177,-37.25683],[174.74961,-37.25842]],[[174.74961,-37.25842],[174.74655,-37.26079]],[[174.74655,-37.26079],[174.74588,-37.26131]],[[174.74588,-37.26131],[174.74427,-37.26256]],[[174.74427,-37.26256],[174.74407,-37.26425]],[[174.74407,-37.26425],[174.74391,-37.2642]],[[174.74391,-37.2642],[174.74363,-37.26444]],[[174.74363,-37.26444],[174.73906,-37.26787]],[[174.73906,-37.26787],[174.73888,-37.26794]],[[174.73888,-37.26794],[174.73864,-37.26792]],[[174.73864,-37.26792],[174.73604,-37.26791]],[[174.73604,-37.26791],[174.73384,-37.26837]],[[174.73384,-37.26837],[174.73284,-37.26857]],[[174.73284,-37.26857],[174.73267,-37.2682]],[[174.73267,-37.2682],[174.73241,-37.26781]],[[174.73241,-37.26781],[174.73164,-37.26642]],[[174.73149,-37.26291],[174.72713,-37.2629]],[[174.72713,-37.2629],[174.72713,-37.2648]],[[174.72713,-37.2648],[174.72598,-37.2648]],[[174.72598,-37.2648],[174.72589,-37.26293]],[[174.72589,-37.26293],[174.72584,-37.26289]],[[174.72584,-37.26289],[174.72491,-37.2629]],[[174.72491,-37.2629],[174.72503,-37.26216]],[[174.72503,-37.26216],[174.72503,-37.26106]],[[174.72503,-37.26106],[174.72359,-37.26106]],[[174.72359,-37.26106],[174.72256,-37.25822]],[[174.72256,-37.25822],[174.72253,-37.25813]],[[174.73164,-37.26642],[174.73123,-37.26502]],[[174.73123,-37.26502],[174.73128,-37.2646]],[[174.73128,-37.2646],[174.73161,-37.26381]],[[174.73161,-37.26381],[174.73158,-37.26307]],[[174.73158,-37.26307],[174.73149,-37.26291]]]}}]}