{"type":"FeatureCollection","features":[{"type":"Feature","properties":{"id":1575,"name":"Takanini","type":"Suburb"},"geometry":{"type":"Point","coordinates":[174.93432707029595,-37.0357634592225]}},{"type":"Feature","properties":{"id":254,"name":"Conifer Grove","type":"Suburb"},"geometry":{"type":"Point","coordinates":[174.91184616892005,-37.04621842363551]}},{"type":"Feature","properties":{"id":2931,"name":"Ōtara","type":"Suburb"},"geometry":{"type":"Point","coordinates":[174.877334240579,-36.960695636885156]}},{"type":"Feature","properties":{"id":8694,"name":"Flat Bush","type":"Suburb"},"geometry":{"type":"Point","coordinates":[174.92968782345608,-36.97321360018525]}},{"type":"Feature","properties":{"id":6542,"name":"East Tāmaki","type":"Suburb"},"geometry":{"type":"Point","coordinates":[174.8900830546972,-36.944230164416446]}},{"type":"Feature","properties":{"id":349,"name":"Epsom","type":"Suburb"},"geometry":{"type":"Point","coordinates":[174.7732798529884,-36.88875086114244]}},{"type":"Feature","properties":{"id":6526,"name":"Muriwai Beach","type":"Locality"},"geometry":{"type":"Point","coordinates":[174.4279945110429,-36.79102331824354]}},{"type":"Feature","properties":{"id":841,"name":"Manukau City Centre","type":"Suburb"},"geometry":{"type":"Point","coordinates":[174.8750541848768,-36.99059528495355]}},{"type":"Feature","properties":{"id":306,"name":"Drury","type":"Suburb"},"geometry":{"type":"Point","coordinates":[174.9694141186457,-37.11079195118009]}},{"type":"Feature","properties":{"id":2729,"name":"Mechanics Bay","type":"Suburb"},"geometry":{"type":"Point","coordinates":[174.78596529321388,-36.844338971113366]}},{"type":"Feature","properties":{"id":8869,"name":"Sunnyhills","type":"Suburb"},"geometry":{"type":"Point","coordinates":[174.8859667087107,-36.90132760509815]}},{"type":"Feature","properties":{"id":370,"name":"Farm Cove","type":"Suburb"},"geometry":{"type":"Point","coordinates":[174.88888609711697,-36.89538874905446]}},{"type":"Feature","properties":{"id":145,"name":"Botany Downs","type":"Suburb"},"geometry":{"type":"Point","coordinates":[174.9171062990855,-36.90913487404737]}},{"type":"Feature","properties":{"id":1444,"name":"Royal Oak","type":"Suburb"},"geometry":{"type":"Point","coordinates":[174.7722365732958,-36.91050874242913]}},{"type":"Feature","properties":{"id":1771,"name":"Waiau Pā","type":"Locality"},"geometry":{"type":"Point","coordinates":[174.7683442143805,-37.13037926251491]}},{"type":"Feature","properties":{"id":8971,"name":"Tāhekeroa","type":"Locality"},"geometry":{"type":"Point","coordinates":[174.556485531993,-36.53835810673494]}},{"type":"Feature","properties":{"id":4085,"name":"Mahurangi","type":"Locality"},"geometry":{"type":"Point","coordinates":[174.74614269493014,-36.463130655831584]}},{"type":"Feature","properties":{"id":2922,"name":"Ōrākei","type":"Suburb"},"geometry":{"type":"Point","coordinates":[174.8188837367325,-36.853896125914744]}},{"type":"Feature","properties":{"id":2877,"name":"Torbay","type":"Suburb"},"geometry":{"type":"Point","coordinates":[174.74154827609016,-36.69986080116453]}},{"type":"Feature","properties":{"id":1589,"name":"Tāpora","type":"Locality"},"geometry":{"type":"Point","coordinates":[174.3285983932759,-36.356992314184346]}},{"type":"Feature","properties":{"id":1356,"name":"Ramarama","type":"Locality"},"geometry":{"type":"Point","coordinates":[174.97439098126858,-37.150284473516365]}},{"type":"Feature","properties":{"id":2860,"name":"Tī Point","type":"Locality"},"geometry":{"type":"Point","coordinates":[174.7905591747541,-36.31331363530744]}},{"type":"Feature","properties":{"id":2865,"name":"Pōhuehue","type":"Locality"},"geometry":{"type":"Point","coordinates":[174.68297914845536,-36.47257114159399]}},{"type":"Feature","properties":{"id":2932,"name":"Highland Park","type":"Suburb"},"geometry":{"type":"Point","coordinates":[174.90908552705383,-36.90482674815627]}},{"type":"Feature","properties":{"id":545,"name":"Hillsborough","type":"Suburb"},"geometry":{"type":"Point","coordinates":[174.7537030773904,-36.92470356833811]}},{"type":"Feature","properties":{"id":1371,"name":"Rānui","type":"Suburb"},"geometry":{"type":"Point","coordinates":[174.60147253901053,-36.86463024016714]}},{"type":"Feature","properties":{"id":1187,"name":"Pākiri","type":"Locality"},"geometry":{"type":"Point","coordinates":[174.73592834969884,-36.27053761118056]}},{"type":"Feature","properties":{"id":1228,"name":"Patumāhoe","type":"Locality"},"geometry":{"type":"Point","coordinates":[174.83901257850383,-37.17998714402195]}},{"type":"Feature","properties":{"id":2852,"name":"Te Ārai","type":"Locality"},"geometry":{"type":"Point","coordinates":[174.59985548652605,-36.19336756113707]}},{"type":"Feature","properties":{"id":2875,"name":"Ōkura Bush","type":"Locality"},"geometry":{"type":"Point","coordinates":[174.70879850666455,-36.65674095465015]}},{"type":"Feature","properties":{"id":1098,"name":"Ōmaha","type":"Locality"},"geometry":{"type":"Point","coordinates":[174.7855284323897,-36.342617455076024]}},{"type":"Feature","properties":{"id":8751,"name":"Big Ōmaha","type":"Suburb"},"geometry":{"type":"Point","coordinates":[174.72375058768023,-36.30756141533545]}},{"type":"Feature","properties":{"id":4006,"name":"Ness Valley","type":"Locality"},"geometry":{"type":"Point","coordinates":[175.12273692230934,-37.003217184523464]}},{"type":"Feature","properties":{"id":2725,"name":"Ōrere Point","type":"Locality"},"geometry":{"type":"Point","coordinates":[175.2288446443153,-36.99732519005472]}},{"type":"Feature","properties":{"id":1211,"name":"Parau","type":"Suburb"},"geometry":{"type":"Point","coordinates":[174.61398372034247,-36.97533495799702]}},{"type":"Feature","properties":{"id":2285,"name":"Nihotupu","type":"Suburb"},"geometry":{"type":"Point","coordinates":[174.60138896294353,-36.952199201783635]}},{"type":"Feature","properties":{"id":2917,"name":"Westhaven","type":"Suburb"},"geometry":{"type":"Point","coordinates":[174.74321300606564,-36.836711151646966]}},{"type":"Feature","properties":{"id":4019,"name":"Woodhill Forest","type":"Locality"},"geometry":{"type":"Point","coordinates":[174.25453436315274,-36.54847423414812]}},{"type":"Feature","properties":{"id":2915,"name":"Western Springs","type":"Suburb"},"geometry":{"type":"Point","coordinates":[174.72038989005026,-36.862975581550025]}},{"type":"Feature","properties":{"id":2873,"name":"Campbells Bay","type":"Suburb"},"geometry":{"type":"Point","coordinates":[174.7560901785383,-36.749622653873004]}},{"type":"Feature","properties":{"id":2731,"name":"Weymouth","type":"Suburb"},"geometry":{"type":"Point","coordinates":[174.8690867265556,-37.04227627429143]}},{"type":"Feature","properties":{"id":2901,"name":"Milford","type":"Suburb"},"geometry":{"type":"Point","coordinates":[174.76086101657185,-36.7736529933666]}},{"type":"Feature","properties":{"id":2953,"name":"Manukau Heads","type":"Locality"},"geometry":{"type":"Point","coordinates":[174.59901763261328,-37.06146229192399]}},{"type":"Feature","properties":{"id":1196,"name":"Papakura","type":"Suburb"},"geometry":{"type":"Point","coordinates":[174.9688716268178,-37.0601222875011]}},{"type":"Feature","properties":{"id":2960,"name":"Albany","type":"Suburb"},"geometry":{"type":"Point","coordinates":[174.69829214285613,-36.734298921989016]}},{"type":"Feature","properties":{"id":2881,"name":"Rothesay Bay","type":"Suburb"},"geometry":{"type":"Point","coordinates":[174.74641830729115,-36.72470689752185]}},{"type":"Feature","properties":{"id":2754,"name":"Anawhata","type":"Locality"},"geometry":{"type":"Point","coordinates":[174.48906223310235,-36.924340801994866]}},{"type":"Feature","properties":{"id":525,"name":"Helensville","type":"Suburb"},"geometry":{"type":"Point","coordinates":[174.4691153584122,-36.69153757872096]}},{"type":"Feature","properties":{"id":2899,"name":"Birkenhead","type":"Suburb"},"geometry":{"type":"Point","coordinates":[174.72151532389478,-36.80874056199008]}},{"type":"Feature","properties":{"id":8842,"name":"New Windsor","type":"Suburb"},"geometry":{"type":"Point","coordinates":[174.71288146648695,-36.904912782096524]}},{"type":"Feature","properties":{"id":2923,"name":"Remuera","type":"Suburb"},"geometry":{"type":"Point","coordinates":[174.80773984788252,-36.87629194379763]}},{"type":"Feature","properties":{"id":2911,"name":"New Lynn","type":"Suburb"},"geometry":{"type":"Point","coordinates":[174.67892532259734,-36.913367279778264]}},{"type":"Feature","properties":{"id":8876,"name":"Huapai","type":"Suburb"},"geometry":{"type":"Point","coordinates":[174.54040919536956,-36.766162637247874]}},{"type":"Feature","properties":{"id":4131,"name":"Parnell","type":"Suburb"},"geometry":{"type":"Point","coordinates":[174.78521482359574,-36.85581929023877]}},{"type":"Feature","properties":{"id":1464,"name":"Sandringham","type":"Suburb"},"geometry":{"type":"Point","coordinates":[174.7360512915283,-36.88775271128742]}},{"type":"Feature","properties":{"id":2914,"name":"Point Chevalier","type":"Suburb"},"geometry":{"type":"Point","coordinates":[174.70236605293906,-36.86756422113697]}},{"type":"Feature","properties":{"id":844,"name":"Manurewa","type":"Suburb"},"geometry":{"type":"Point","coordinates":[174.89185862145,-37.022651515356664]}},{"type":"Feature","properties":{"id":1525,"name":"St Johns","type":"Suburb"},"geometry":{"type":"Point","coordinates":[174.84204613365887,-36.88026181643951]}},{"type":"Feature","properties":{"id":2876,"name":"Red Beach","type":"Suburb"},"geometry":{"type":"Point","coordinates":[174.69776151710636,-36.60901330780031]}},{"type":"Feature","properties":{"id":8775,"name":"Palm Beach","type":"Suburb"},"geometry":{"type":"Point","coordinates":[175.043795297096,-36.78273369844697]}},{"type":"Feature","properties":{"id":2861,"name":"Leigh","type":"Locality"},"geometry":{"type":"Point","coordinates":[174.78612783507668,-36.28028176753404]}},{"type":"Feature","properties":{"id":1182,"name":"Paerata","type":"Locality"},"geometry":{"type":"Point","coordinates":[174.9103382549419,-37.15853728763102]}},{"type":"Feature","properties":{"id":1203,"name":"Papatoetoe","type":"Suburb"},"geometry":{"type":"Point","coordinates":[174.85582785588164,-36.97728484509551]}},{"type":"Feature","properties":{"id":2889,"name":"Ōkura","type":"Suburb"},"geometry":{"type":"Point","coordinates":[174.72457516604618,-36.6791859844394]}},{"type":"Feature","properties":{"id":488,"name":"Half Moon Bay","type":"Suburb"},"geometry":{"type":"Point","coordinates":[174.90000433167953,-36.88883242707188]}},{"type":"Feature","properties":{"id":4361,"name":"Herald Island","type":"Suburb"},"geometry":{"type":"Point","coordinates":[174.6567333293438,-36.778742061357974]}},{"type":"Feature","properties":{"id":2916,"name":"Westmere","type":"Suburb"},"geometry":{"type":"Point","coordinates":[174.72250711791892,-36.855588130271805]}},{"type":"Feature","properties":{"id":1665,"name":"The Gardens","type":"Suburb"},"geometry":{"type":"Point","coordinates":[174.9122087271363,-37.003360698535836]}},{"type":"Feature","properties":{"id":2902,"name":"Northcote","type":"Suburb"},"geometry":{"type":"Point","coordinates":[174.74708445681858,-36.803876976808624]}},{"type":"Feature","properties":{"id":1381,"name":"Red Hill","type":"Suburb"},"geometry":{"type":"Point","coordinates":[174.97515104363382,-37.06921916401197]}},{"type":"Feature","properties":{"id":6544,"name":"Eastern Beach","type":"Suburb"},"geometry":{"type":"Point","coordinates":[174.91423375275332,-36.87719095503877]}},{"type":"Feature","properties":{"id":8828,"name":"Lucas Heights","type":"Suburb"},"geometry":{"type":"Point","coordinates":[174.67265166805322,-36.73197646550353]}},{"type":"Feature","properties":{"id":248,"name":"Coatesville","type":"Locality"},"geometry":{"type":"Point","coordinates":[174.63765960132105,-36.71955876708603]}},{"type":"Feature","properties":{"id":2882,"name":"Stillwater","type":"Locality"},"geometry":{"type":"Point","coordinates":[174.68956036931675,-36.64187225640886]}},{"type":"Feature","properties":{"id":2908,"name":"Te Atatū South","type":"Suburb"},"geometry":{"type":"Point","coordinates":[174.6474143084826,-36.87001071146821]}},{"type":"Feature","properties":{"id":1552,"name":"Swanson","type":"Suburb"},"geometry":{"type":"Point","coordinates":[174.56891800867194,-36.87371659860431]}},{"type":"Feature","properties":{"id":8822,"name":"Schnapper Rock","type":"Suburb"},"geometry":{"type":"Point","coordinates":[174.6868803880424,-36.75584980329814]}},{"type":"Feature","properties":{"id":2874,"name":"Gulf Harbour","type":"Suburb"},"geometry":{"type":"Point","coordinates":[174.79256149274585,-36.61559328792443]}},{"type":"Feature","properties":{"id":8776,"name":"Surfdale","type":"Suburb"},"geometry":{"type":"Point","coordinates":[175.0285999389228,-36.79842358329119]}},{"type":"Feature","properties":{"id":8823,"name":"Windsor Park","type":"Suburb"},"geometry":{"type":"Point","coordinates":[174.73533759833222,-36.742433002404496]}},{"type":"Feature","properties":{"id":2883,"name":"Tindalls Beach","type":"Suburb"},"geometry":{"type":"Point","coordinates":[174.77179012096852,-36.61835464979493]}},{"type":"Feature","properties":{"id":2964,"name":"Glenfield","type":"Suburb"},"geometry":{"type":"Point","coordinates":[174.72130573856188,-36.7818902649719]}},{"type":"Feature","properties":{"id":183,"name":"Burswood","type":"Suburb"},"geometry":{"type":"Point","coordinates":[174.89718893378242,-36.924819262124885]}},{"type":"Feature","properties":{"id":2913,"name":"Herne Bay","type":"Suburb"},"geometry":{"type":"Point","coordinates":[174.73280153859483,-36.845261893093806]}},{"type":"Feature","properties":{"id":2890,"name":"Stanmore Bay","type":"Suburb"},"geometry":{"type":"Point","coordinates":[174.73201449439725,-36.625684297733784]}},{"type":"Feature","properties":{"id":2727,"name":"Whitford","type":"Locality"},"geometry":{"type":"Point","coordinates":[174.98363859313127,-36.943876856841065]}},{"type":"Feature","properties":{"id":8825,"name":"Oteha","type":"Suburb"},"geometry":{"type":"Point","coordinates":[174.7192760318917,-36.719815268200634]}},{"type":"Feature","properties":{"id":1603,"name":"Tauhoa","type":"Locality"},"geometry":{"type":"Point","coordinates":[174.44331289756076,-36.36664199495422]}},{"type":"Feature","properties":{"id":8768,"name":"Northpark","type":"Suburb"},"geometry":{"type":"Point","coordinates":[174.91951089035288,-36.92092006361667]}},{"type":"Feature","properties":{"id":8777,"name":"Matakatia","type":"Suburb"},"geometry":{"type":"Point","coordinates":[174.779114552168,-36.61995273025296]}},{"type":"Feature","properties":{"id":2886,"name":"Murrays Bay","type":"Suburb"},"geometry":{"type":"Point","coordinates":[174.74647645734586,-36.73187700888585]}},{"type":"Feature","properties":{"id":2226,"name":"Pollok","type":"Locality"},"geometry":{"type":"Point","coordinates":[174.65023263717217,-37.18000764516666]}},{"type":"Feature","properties":{"id":2728,"name":"Auckland Central","type":"Suburb"},"geometry":{"type":"Point","coordinates":[174.76426391426355,-36.84817036109831]}},{"type":"Feature","properties":{"id":779,"name":"Lynfield","type":"Suburb"},"geometry":{"type":"Point","coordinates":[174.720442861406,-36.930309208411266]}},{"type":"Feature","properties":{"id":2918,"name":"Saint Marys Bay","type":"Suburb"},"geometry":{"type":"Point","coordinates":[174.74589146257512,-36.8431822811583]}},{"type":"Feature","properties":{"id":8933,"name":"Wai o Taiki Bay","type":"Suburb"},"geometry":{"type":"Point","coordinates":[174.8758951587137,-36.87300576650891]}},{"type":"Feature","properties":{"id":8767,"name":"Mellons Bay","type":"Suburb"},"geometry":{"type":"Point","coordinates":[174.92928910887719,-36.88644587210088]}},{"type":"Feature","properties":{"id":2868,"name":"Waiwera","type":"Locality"},"geometry":{"type":"Point","coordinates":[174.69892770167883,-36.54671666734899]}},{"type":"Feature","properties":{"id":2907,"name":"Kelston","type":"Suburb"},"geometry":{"type":"Point","coordinates":[174.6646606566324,-36.898773211413356]}},{"type":"Feature","properties":{"id":693,"name":"Kingseat","type":"Locality"},"geometry":{"type":"Point","coordinates":[174.81229109771905,-37.144550071812226]}},{"type":"Feature","properties":{"id":795,"name":"Mahurangi West","type":"Locality"},"geometry":{"type":"Point","coordinates":[174.70530765487393,-36.50264609079155]}},{"type":"Feature","properties":{"id":1359,"name":"Randwick Park","type":"Suburb"},"geometry":{"type":"Point","coordinates":[174.91913632758758,-37.02383654317183]}},{"type":"Feature","properties":{"id":2870,"name":"Wainui","type":"Locality"},"geometry":{"type":"Point","coordinates":[174.62287500089002,-36.579087982266884]}},{"type":"Feature","properties":{"id":1207,"name":"Parakai","type":"Suburb"},"geometry":{"type":"Point","coordinates":[174.43005820377675,-36.653659728388924]}},{"type":"Feature","properties":{"id":2897,"name":"Bayswater","type":"Suburb"},"geometry":{"type":"Point","coordinates":[174.7783360310553,-36.81361142943956]}},{"type":"Feature","properties":{"id":435,"name":"Glen Innes","type":"Suburb"},"geometry":{"type":"Point","coordinates":[174.86033584060223,-36.87380792653476]}},{"type":"Feature","properties":{"id":8827,"name":"Albany Heights","type":"Suburb"},"geometry":{"type":"Point","coordinates":[174.69306577856625,-36.715807469674466]}},{"type":"Feature","properties":{"id":2869,"name":"Puhoi","type":"Locality"},"geometry":{"type":"Point","coordinates":[174.6367368742439,-36.521944877948194]}},{"type":"Feature","properties":{"id":8649,"name":"Ōmiha","type":"Suburb"},"geometry":{"type":"Point","coordinates":[175.05938826697368,-36.81652554697018]}},{"type":"Feature","properties":{"id":635,"name":"Kaipara Flats","type":"Locality"},"geometry":{"type":"Point","coordinates":[174.5397243254467,-36.42751663763643]}},{"type":"Feature","properties":{"id":2726,"name":"Beachlands","type":"Suburb"},"geometry":{"type":"Point","coordinates":[175.01666176093957,-36.907367683402065]}},{"type":"Feature","properties":{"id":996,"name":"Mount Roskill","type":"Suburb"},"geometry":{"type":"Point","coordinates":[174.73505921222431,-36.916875902725735]}},{"type":"Feature","properties":{"id":658,"name":"Karaka","type":"Locality"},"geometry":{"type":"Point","coordinates":[174.87324430405047,-37.10369092874345]}},{"type":"Feature","properties":{"id":1547,"name":"Sunnyvale","type":"Suburb"},"geometry":{"type":"Point","coordinates":[174.6364935283457,-36.898980218705034]}},{"type":"Feature","properties":{"id":1621,"name":"Te Hana","type":"Locality"},"geometry":{"type":"Point","coordinates":[174.49786898467482,-36.25780956721343]}},{"type":"Feature","properties":{"id":2406,"name":"Waiatarua","type":"Suburb"},"geometry":{"type":"Point","coordinates":[174.56633723500855,-36.93296170647746]}},{"type":"Feature","properties":{"id":836,"name":"Māngere Bridge","type":"Suburb"},"geometry":{"type":"Point","coordinates":[174.77860885493567,-36.94925745231504]}},{"type":"Feature","properties":{"id":2390,"name":"Titirangi","type":"Suburb"},"geometry":{"type":"Point","coordinates":[174.64702585575102,-36.940887681672685]}},{"type":"Feature","properties":{"id":2871,"name":"Orewa","type":"Suburb"},"geometry":{"type":"Point","coordinates":[174.68188103454978,-36.58637480837844]}},{"type":"Feature","properties":{"id":235,"name":"Clendon Park","type":"Suburb"},"geometry":{"type":"Point","coordinates":[174.86141896204057,-37.03051088422641]}},{"type":"Feature","properties":{"id":462,"name":"Green Bay","type":"Suburb"},"geometry":{"type":"Point","coordinates":[174.67829660221392,-36.93168167964415]}},{"type":"Feature","properties":{"id":2879,"name":"Castor Bay","type":"Suburb"},"geometry":{"type":"Point","coordinates":[174.7617918250362,-36.76066553305417]}},{"type":"Feature","properties":{"id":2904,"name":"Te Atatū Peninsula","type":"Suburb"},"geometry":{"type":"Point","coordinates":[174.64872381122134,-36.841355312062014]}},{"type":"Feature","properties":{"id":4120,"name":"Āwhitu","type":"Locality"},"geometry":{"type":"Point","coordinates":[174.60521072050926,-37.10264794208911]}},{"type":"Feature","properties":{"id":341,"name":"Ellerslie","type":"Suburb"},"geometry":{"type":"Point","coordinates":[174.812876312962,-36.89678525532175]}},{"type":"Feature","properties":{"id":2894,"name":"Stanley Point","type":"Suburb"},"geometry":{"type":"Point","coordinates":[174.78321872979504,-36.82712938441443]}},{"type":"Feature","properties":{"id":2862,"name":"Sandspit","type":"Locality"},"geometry":{"type":"Point","coordinates":[174.72420545574317,-36.396673327142715]}},{"type":"Feature","properties":{"id":805,"name":"Makarau","type":"Locality"},"geometry":{"type":"Point","coordinates":[174.5091849103211,-36.51079105768062]}},{"type":"Feature","properties":{"id":2954,"name":"Huia","type":"Suburb"},"geometry":{"type":"Point","coordinates":[174.5395803889678,-36.998070198943154]}},{"type":"Feature","properties":{"id":2757,"name":"Shelly Beach","type":"Locality"},"geometry":{"type":"Point","coordinates":[174.37080822870453,-36.57008301310909]}},{"type":"Feature","properties":{"id":8658,"name":"Takapuna","type":"Suburb"},"geometry":{"type":"Point","coordinates":[174.76602180556623,-36.786054451873994]}},{"type":"Feature","properties":{"id":2737,"name":"Māngere","type":"Suburb"},"geometry":{"type":"Point","coordinates":[174.7793641938247,-36.97912980942025]}},{"type":"Feature","properties":{"id":2906,"name":"Glendene","type":"Suburb"},"geometry":{"type":"Point","coordinates":[174.65437139396877,-36.89016279950858]}},{"type":"Feature","properties":{"id":822,"name":"Mangakura","type":"Locality"},"geometry":{"type":"Point","coordinates":[174.46965330444453,-36.404861222724186]}},{"type":"Feature","properties":{"id":1889,"name":"Wattle Downs","type":"Suburb"},"geometry":{"type":"Point","coordinates":[174.88611179116054,-37.047249139689086]}},{"type":"Feature","properties":{"id":4018,"name":"South Head","type":"Locality"},"geometry":{"type":"Point","coordinates":[174.31063041639584,-36.56537168461028]}},{"type":"Feature","properties":{"id":2739,"name":"Kawakawa Bay","type":"Locality"},"geometry":{"type":"Point","coordinates":[175.16762310404025,-36.96687664985118]}},{"type":"Feature","properties":{"id":1956,"name":"Wiri","type":"Suburb"},"geometry":{"type":"Point","coordinates":[174.850568355473,-37.006462057520665]}},{"type":"Feature","properties":{"id":8820,"name":"Bayview","type":"Suburb"},"geometry":{"type":"Point","coordinates":[174.70958079787448,-36.77460678181241]}},{"type":"Feature","properties":{"id":2895,"name":"Belmont","type":"Suburb"},"geometry":{"type":"Point","coordinates":[174.78802087911077,-36.80540735679878]}},{"type":"Feature","properties":{"id":446,"name":"Glorit","type":"Locality"},"geometry":{"type":"Point","coordinates":[174.45132171420767,-36.467913634432094]}},{"type":"Feature","properties":{"id":1897,"name":"Wellsford","type":"Suburb"},"geometry":{"type":"Point","coordinates":[174.51868378895566,-36.29476424138552]}},{"type":"Feature","properties":{"id":1237,"name":"Penrose","type":"Suburb"},"geometry":{"type":"Point","coordinates":[174.81764617764995,-36.9183996248828]}},{"type":"Feature","properties":{"id":994,"name":"Mount Albert","type":"Suburb"},"geometry":{"type":"Point","coordinates":[174.71834597041192,-36.88520384276387]}},{"type":"Feature","properties":{"id":8651,"name":"Oneroa","type":"Suburb"},"geometry":{"type":"Point","coordinates":[175.0132905299526,-36.78014561450265]}},{"type":"Feature","properties":{"id":1018,"name":"Newmarket","type":"Suburb"},"geometry":{"type":"Point","coordinates":[174.77616528207312,-36.86751514328831]}},{"type":"Feature","properties":{"id":2924,"name":"Mission Bay","type":"Suburb"},"geometry":{"type":"Point","coordinates":[174.83256303287257,-36.85547004539795]}},{"type":"Feature","properties":{"id":8819,"name":"Northcote Point","type":"Suburb"},"geometry":{"type":"Point","coordinates":[174.74556983060896,-36.819590191225075]}},{"type":"Feature","properties":{"id":2887,"name":"Redvale","type":"Suburb"},"geometry":{"type":"Point","coordinates":[174.70003689930067,-36.68832488769596]}},{"type":"Feature","properties":{"id":526,"name":"Henderson","type":"Suburb"},"geometry":{"type":"Point","coordinates":[174.62342883086075,-36.87924479271863]}},{"type":"Feature","properties":{"id":1185,"name":"Pahurehure","type":"Suburb"},"geometry":{"type":"Point","coordinates":[174.93281244571241,-37.06854960757424]}},{"type":"Feature","properties":{"id":2863,"name":"Algies Bay","type":"Suburb"},"geometry":{"type":"Point","coordinates":[174.7422212376916,-36.436540812924555]}},{"type":"Feature","properties":{"id":8690,"name":"Silverdale","type":"Suburb"},"geometry":{"type":"Point","coordinates":[174.6732596211526,-36.61553455309699]}},{"type":"Feature","properties":{"id":2900,"name":"Birkdale","type":"Suburb"},"geometry":{"type":"Point","coordinates":[174.70425541994572,-36.79689893783545]}},{"type":"Feature","properties":{"id":8824,"name":"Long Bay","type":"Suburb"},"geometry":{"type":"Point","coordinates":[174.736640473902,-36.68299190629545]}},{"type":"Feature","properties":{"id":8970,"name":"Wesley","type":"Suburb"},"geometry":{"type":"Point","coordinates":[174.72891292517784,-36.90243027888879]}},{"type":"Feature","properties":{"id":1986,"name":"Tomarata","type":"Locality"},"geometry":{"type":"Point","coordinates":[174.67534644940312,-36.24185937248636]}},{"type":"Feature","properties":{"id":2756,"name":"Waitākere","type":"Suburb"},"geometry":{"type":"Point","coordinates":[174.50317300002442,-36.873888750645555]}},{"type":"Feature","properties":{"id":4033,"name":"Clevedon","type":"Locality"},"geometry":{"type":"Point","coordinates":[175.0578010756185,-36.98260964106253]}},{"type":"Feature","properties":{"id":2866,"name":"Hatfields Beach","type":"Suburb"},"geometry":{"type":"Point","coordinates":[174.6828291776041,-36.567412759209816]}},{"type":"Feature","properties":{"id":371,"name":"Favona","type":"Suburb"},"geometry":{"type":"Point","coordinates":[174.8163133132616,-36.95194991704524]}},{"type":"Feature","properties":{"id":46,"name":"Ardmore","type":"Locality"},"geometry":{"type":"Point","coordinates":[174.98521439609794,-37.036707269627904]}},{"type":"Feature","properties":{"id":144,"name":"Bombay","type":"Locality"},"geometry":{"type":"Point","coordinates":[175.00503019216242,-37.18044789314117]}},{"type":"Feature","properties":{"id":6529,"name":"Whangaripo","type":"Locality"},"geometry":{"type":"Point","coordinates":[174.63434567872307,-36.28944321802456]}},{"type":"Feature","properties":{"id":2885,"name":"Army Bay","type":"Suburb"},"geometry":{"type":"Point","coordinates":[174.82026025146638,-36.60588460555097]}},{"type":"Feature","properties":{"id":589,"name":"Huntington Park","type":"Suburb"},"geometry":{"type":"Point","coordinates":[174.90691188040844,-36.93130751946447]}},{"type":"Feature","properties":{"id":2888,"name":"Arkles Bay","type":"Suburb"},"geometry":{"type":"Point","coordinates":[174.7435643323196,-36.64247597795346]}},{"type":"Feature","properties":{"id":1432,"name":"Rosehill","type":"Suburb"},"geometry":{"type":"Point","coordinates":[174.93610985459796,-37.085374121846286]}},{"type":"Feature","properties":{"id":1107,"name":"Onehunga","type":"Suburb"},"geometry":{"type":"Point","coordinates":[174.79049269132716,-36.92088667972122]}},{"type":"Feature","properties":{"id":2933,"name":"Pakuranga","type":"Suburb"},"geometry":{"type":"Point","coordinates":[174.8721976669649,-36.914869888928564]}},{"type":"Feature","properties":{"id":8752,"name":"Whangateau","type":"Suburb"},"geometry":{"type":"Point","coordinates":[174.763950871131,-36.29922558958183]}},{"type":"Feature","properties":{"id":8826,"name":"Fairview Heights","type":"Suburb"},"geometry":{"type":"Point","coordinates":[174.71591423471253,-36.71016980156861]}},{"type":"Feature","properties":{"id":578,"name":"Howick","type":"Suburb"},"geometry":{"type":"Point","coordinates":[174.92413038601433,-36.897740134014974]}},{"type":"Feature","properties":{"id":296,"name":"Dome Valley","type":"Locality"},"geometry":{"type":"Point","coordinates":[174.6347357568666,-36.34962117855191]}},{"type":"Feature","properties":{"id":2884,"name":"Waiake","type":"Suburb"},"geometry":{"type":"Point","coordinates":[174.74957552590382,-36.70660126714448]}},{"type":"Feature","properties":{"id":1675,"name":"Three Kings","type":"Suburb"},"geometry":{"type":"Point","coordinates":[174.7568594448549,-36.90842955278931]}},{"type":"Feature","properties":{"id":8939,"name":"Morningside","type":"Suburb"},"geometry":{"type":"Point","coordinates":[174.73270866471918,-36.873401144834865]}},{"type":"Feature","properties":{"id":892,"name":"Mauku","type":"Locality"},"geometry":{"type":"Point","coordinates":[174.81494498716702,-37.21219072599285]}},{"type":"Feature","properties":{"id":2961,"name":"Pāremoremo","type":"Suburb"},"geometry":{"type":"Point","coordinates":[174.65225374458788,-36.75709908357453]}},{"type":"Feature","properties":{"id":1546,"name":"Sunnynook","type":"Suburb"},"geometry":{"type":"Point","coordinates":[174.73864504197016,-36.75335888470223]}},{"type":"Feature","properties":{"id":845,"name":"Manurewa East","type":"Suburb"},"geometry":{"type":"Point","coordinates":[174.90569971082886,-37.02491311710273]}},{"type":"Feature","properties":{"id":1252,"name":"Pinehill","type":"Suburb"},"geometry":{"type":"Point","coordinates":[174.72385565750926,-36.73174996579672]}},{"type":"Feature","properties":{"id":1500,"name":"Somerville","type":"Suburb"},"geometry":{"type":"Point","coordinates":[174.9338247733524,-36.91365722551214]}},{"type":"Feature","properties":{"id":1061,"name":"Northcross","type":"Suburb"},"geometry":{"type":"Point","coordinates":[174.72747712230117,-36.710454459766055]}},{"type":"Feature","properties":{"id":875,"name":"Matakana","type":"Locality"},"geometry":{"type":"Point","coordinates":[174.7000333373628,-36.3512485360843]}},{"type":"Feature","properties":{"id":329,"name":"Eden Terrace","type":"Suburb"},"geometry":{"type":"Point","coordinates":[174.75769393406316,-36.86424776622486]}},{"type":"Feature","properties":{"id":1838,"name":"Wairau Valley","type":"Suburb"},"geometry":{"type":"Point","coordinates":[174.7395353384699,-36.775217010679846]}},{"type":"Feature","properties":{"id":2925,"name":"Mount Wellington","type":"Suburb"},"geometry":{"type":"Point","coordinates":[174.83972199530425,-36.912739625326715]}},{"type":"Feature","properties":{"id":2864,"name":"Warkworth","type":"Suburb"},"geometry":{"type":"Point","coordinates":[174.65461289938875,-36.42629545832113]}},{"type":"Feature","properties":{"id":1607,"name":"Taupaki","type":"Locality"},"geometry":{"type":"Point","coordinates":[174.55436221090895,-36.821073608987255]}},{"type":"Feature","properties":{"id":8650,"name":"Onetangi","type":"Suburb"},"geometry":{"type":"Point","coordinates":[175.0799886922267,-36.79569564907476]}},{"type":"Feature","properties":{"id":2955,"name":"Piha","type":"Locality"},"geometry":{"type":"Point","coordinates":[174.4939365548684,-36.952182050362005]}},{"type":"Feature","properties":{"id":2926,"name":"Glendowie","type":"Suburb"},"geometry":{"type":"Point","coordinates":[174.87428285004933,-36.86141467117292]}},{"type":"Feature","properties":{"id":2898,"name":"Beach Haven","type":"Suburb"},"geometry":{"type":"Point","coordinates":[174.6916954340819,-36.7983313366758]}},{"type":"Feature","properties":{"id":2024,"name":"Karioitahi","type":"Locality"},"geometry":{"type":"Point","coordinates":[174.68063894494045,-37.24808771844304]}},{"type":"Feature","properties":{"id":8976,"name":"Hillpark","type":"Suburb"},"geometry":{"type":"Point","coordinates":[174.89874432693418,-37.014186904022644]}},{"type":"Feature","properties":{"id":8695,"name":"Tōtara Park","type":"Suburb"},"geometry":{"type":"Point","coordinates":[174.92854896453517,-36.99611270357212]}},{"type":"Feature","properties":{"id":475,"name":"Grey Lynn","type":"Suburb"},"geometry":{"type":"Point","coordinates":[174.73945475732464,-36.86091182934654]}},{"type":"Feature","properties":{"id":2962,"name":"Hobsonville","type":"Suburb"},"geometry":{"type":"Point","coordinates":[174.6520848888322,-36.79943433456335]}},{"type":"Feature","properties":{"id":2920,"name":"Kohimarama","type":"Suburb"},"geometry":{"type":"Point","coordinates":[174.84037582874194,-36.85742051134073]}},{"type":"Feature","properties":{"id":1112,"name":"Ōpaheke","type":"Suburb"},"geometry":{"type":"Point","coordinates":[174.97430276042286,-37.088600746870426]}},{"type":"Feature","properties":{"id":1614,"name":"Tāwharanui Peninsula","type":"Locality"},"geometry":{"type":"Point","coordinates":[174.78389259329361,-36.36669190437213]}},{"type":"Feature","properties":{"id":2721,"name":"Maraetai","type":"Suburb"},"geometry":{"type":"Point","coordinates":[175.0373118676198,-36.88863285680517]}},{"type":"Feature","properties":{"id":2880,"name":"Mairangi Bay","type":"Suburb"},"geometry":{"type":"Point","coordinates":[174.74720982587,-36.74095245387014]}},{"type":"Feature","properties":{"id":8835,"name":"Ōtāhuhu","type":"Suburb"},"geometry":{"type":"Point","coordinates":[174.84710193225519,-36.94357780427567]}},{"type":"Feature","properties":{"id":2903,"name":"Chatswood","type":"Suburb"},"geometry":{"type":"Point","coordinates":[174.71021831652018,-36.81831058475507]}},{"type":"Feature","properties":{"id":2929,"name":"Panmure","type":"Suburb"},"geometry":{"type":"Point","coordinates":[174.859436264208,-36.89774181338161]}},{"type":"Feature","properties":{"id":8652,"name":"Ostend","type":"Suburb"},"geometry":{"type":"Point","coordinates":[175.05212402871163,-36.79195861574059]}},{"type":"Feature","properties":{"id":2896,"name":"Devonport","type":"Suburb"},"geometry":{"type":"Point","coordinates":[174.7977807184168,-36.823464429924556]}},{"type":"Feature","properties":{"id":276,"name":"Dairy Flat","type":"Locality"},"geometry":{"type":"Point","coordinates":[174.64454689556018,-36.67041414104876]}},{"type":"Feature","properties":{"id":2753,"name":"Cornwallis","type":"Suburb"},"geometry":{"type":"Point","coordinates":[174.601903714802,-36.99360555071066]}},{"type":"Feature","properties":{"id":2892,"name":"Narrow Neck","type":"Suburb"},"geometry":{"type":"Point","coordinates":[174.7996471735187,-36.81522602237168]}},{"type":"Feature","properties":{"id":2893,"name":"Hauraki","type":"Suburb"},"geometry":{"type":"Point","coordinates":[174.77834510227126,-36.79950808176084]}},{"type":"Feature","properties":{"id":2910,"name":"Waterview","type":"Suburb"},"geometry":{"type":"Point","coordinates":[174.69920768401073,-36.87950129231217]}},{"type":"Feature","properties":{"id":8821,"name":"Unsworth Heights","type":"Suburb"},"geometry":{"type":"Point","coordinates":[174.7168465418344,-36.75750368353483]}},{"type":"Feature","properties":{"id":467,"name":"Greenlane","type":"Suburb"},"geometry":{"type":"Point","coordinates":[174.79131116243425,-36.89509054769935]}},{"type":"Feature","properties":{"id":995,"name":"Mount Eden","type":"Suburb"},"geometry":{"type":"Point","coordinates":[174.75354456731966,-36.883343490683586]}},{"type":"Feature","properties":{"id":425,"name":"Glenbrook","type":"Locality"},"geometry":{"type":"Point","coordinates":[174.7509240127381,-37.18815758960597]}},{"type":"Feature","properties":{"id":8829,"name":"Tōtara Vale","type":"Suburb"},"geometry":{"type":"Point","coordinates":[174.7283524965461,-36.76317114242503]}},{"type":"Feature","properties":{"id":2878,"name":"Manly","type":"Suburb"},"geometry":{"type":"Point","coordinates":[174.75845444913733,-36.632484231119044]}},{"type":"Feature","properties":{"id":8878,"name":"Stonefields","type":"Suburb"},"geometry":{"type":"Point","coordinates":[174.8403921766656,-36.8869796289859]}},{"type":"Feature","properties":{"id":2859,"name":"Point Wells","type":"Locality"},"geometry":{"type":"Point","coordinates":[174.75638613116993,-36.332250325609]}},{"type":"Feature","properties":{"id":8697,"name":"East Tāmaki Heights","type":"Suburb"},"geometry":{"type":"Point","coordinates":[174.92602140298868,-36.941562468645635]}},{"type":"Feature","properties":{"id":2905,"name":"West Harbour","type":"Suburb"},"geometry":{"type":"Point","coordinates":[174.63178315787596,-36.81423547511666]}},{"type":"Feature","properties":{"id":1456,"name":"Runciman","type":"Locality"},"geometry":{"type":"Point","coordinates":[174.94082482470648,-37.133016972582546]}},{"type":"Feature","properties":{"id":694,"name":"Kingsland","type":"Suburb"},"geometry":{"type":"Point","coordinates":[174.74533665226988,-36.86982084391713]}},{"type":"Feature","properties":{"id":41,"name":"Ararimu","type":"Locality"},"geometry":{"type":"Point","coordinates":[175.05115851232406,-37.14130575697984]}},{"type":"Feature","properties":{"id":448,"name":"Golflands","type":"Suburb"},"geometry":{"type":"Point","coordinates":[174.9087752703284,-36.92176265590157]}},{"type":"Feature","properties":{"id":1859,"name":"Waitoki","type":"Locality"},"geometry":{"type":"Point","coordinates":[174.57189320108557,-36.64009368964534]}},{"type":"Feature","properties":{"id":8696,"name":"Dannemora","type":"Suburb"},"geometry":{"type":"Point","coordinates":[174.92426563220587,-36.92954288850916]}},{"type":"Feature","properties":{"id":18,"name":"Alfriston","type":"Suburb"},"geometry":{"type":"Point","coordinates":[174.9402372783631,-37.01071932376158]}},{"type":"Feature","properties":{"id":8693,"name":"Shamrock Park","type":"Suburb"},"geometry":{"type":"Point","coordinates":[174.92964793291847,-36.92321999575965]}},{"type":"Feature","properties":{"id":1484,"name":"Shelly Park","type":"Suburb"},"geometry":{"type":"Point","coordinates":[174.94655692205168,-36.90935686461424]}},{"type":"Feature","properties":{"id":8961,"name":"Westgate","type":"Suburb"},"geometry":{"type":"Point","coordinates":[174.60126740155627,-36.81759020022016]}},{"type":"Feature","properties":{"id":2755,"name":"Te Henga / Bethells Beach","type":"Locality"},"geometry":{"type":"Point","coordinates":[174.46037305960053,-36.88889860411299]}},{"type":"Feature","properties":{"id":2763,"name":"Port Albert","type":"Locality"},"geometry":{"type":"Point","coordinates":[174.4523170671651,-36.273992497797266]}},{"type":"Feature","properties":{"id":8962,"name":"Wade Heads","type":"Suburb"},"geometry":{"type":"Point","coordinates":[174.7312334886524,-36.64014842738196]}},{"type":"Feature","properties":{"id":295,"name":"Dome Forest","type":"Locality"},"geometry":{"type":"Point","coordinates":[174.57857329193826,-36.379120836668804]}},{"type":"Feature","properties":{"id":2183,"name":"Karekare","type":"Locality"},"geometry":{"type":"Point","coordinates":[174.4991518719205,-36.98682888232501]}},{"type":"Feature","properties":{"id":6543,"name":"Cockle Bay","type":"Suburb"},"geometry":{"type":"Point","coordinates":[174.94311953688717,-36.90068378706575]}},{"type":"Feature","properties":{"id":2958,"name":"Riverhead","type":"Suburb"},"geometry":{"type":"Point","coordinates":[174.58212190472798,-36.72252707576722]}},{"type":"Feature","properties":{"id":2762,"name":"Wharehine","type":"Locality"},"geometry":{"type":"Point","coordinates":[174.4113481027374,-36.317466663724765]}},{"type":"Feature","properties":{"id":1279,"name":"Ponsonby","type":"Suburb"},"geometry":{"type":"Point","coordinates":[174.73908988795384,-36.85099188701796]}},{"type":"Feature","properties":{"id":459,"name":"Grafton","type":"Suburb"},"geometry":{"type":"Point","coordinates":[174.76668193414767,-36.86120170135238]}},{"type":"Feature","properties":{"id":2166,"name":"Henderson Valley","type":"Suburb"},"geometry":{"type":"Point","coordinates":[174.56260243345375,-36.90321475340255]}},{"type":"Feature","properties":{"id":2921,"name":"Meadowbank","type":"Suburb"},"geometry":{"type":"Point","coordinates":[174.82999352388393,-36.87010492613294]}},{"type":"Feature","properties":{"id":2963,"name":"Kumeū","type":"Suburb"},"geometry":{"type":"Point","coordinates":[174.54237843733264,-36.788749457685384]}},{"type":"Feature","properties":{"id":2919,"name":"Saint Heliers","type":"Suburb"},"geometry":{"type":"Point","coordinates":[174.8554099609721,-36.858542239318204]}},{"type":"Feature","properties":{"id":2017,"name":"Laingholm","type":"Suburb"},"geometry":{"type":"Point","coordinates":[174.6305739933453,-36.964907880749834]}},{"type":"Feature","properties":{"id":421,"name":"Glen Eden","type":"Suburb"},"geometry":{"type":"Point","coordinates":[174.6432777669446,-36.91342459859943]}},{"type":"Feature","properties":{"id":8654,"name":"Snells Beach","type":"Suburb"},"geometry":{"type":"Point","coordinates":[174.7248204776017,-36.41881199799111]}},{"type":"Feature","properties":{"id":1982,"name":"Waimauku","type":"Suburb"},"geometry":{"type":"Point","coordinates":[174.4785954760742,-36.772825352419474]}},{"type":"Feature","properties":{"id":1106,"name":"One Tree Hill","type":"Suburb"},"geometry":{"type":"Point","coordinates":[174.7900622025296,-36.904430127389574]}},{"type":"Feature","properties":{"id":240,"name":"Clover Park","type":"Suburb"},"geometry":{"type":"Point","coordinates":[174.89297536132491,-36.98281971332416]}},{"type":"Feature","properties":{"id":230,"name":"Clarks Beach","type":"Suburb"},"geometry":{"type":"Point","coordinates":[174.7210147115406,-37.14037876168568]}},{"type":"Feature","properties":{"id":2872,"name":"Browns Bay","type":"Suburb"},"geometry":{"type":"Point","coordinates":[174.73713084094572,-36.719041004446325]}},{"type":"Feature","properties":{"id":2758,"name":"Kaukapakapa","type":"Locality"},"geometry":{"type":"Point","coordinates":[174.49619534005353,-36.5994164001606]}},{"type":"Feature","properties":{"id":2912,"name":"Avondale","type":"Suburb"},"geometry":{"type":"Point","coordinates":[174.68438524820172,-36.88721427234928]}},{"type":"Feature","properties":{"id":926,"name":"Middlemore Hospital","type":"Suburb"},"geometry":{"type":"Point","coordinates":[174.84337460195897,-36.96021969312049]}},{"type":"Feature","properties":{"id":1190,"name":"Pakuranga Heights","type":"Suburb"},"geometry":{"type":"Point","coordinates":[174.89326626810308,-36.91271080721558]}},{"type":"Feature","properties":{"id":541,"name":"Hillcrest","type":"Suburb"},"geometry":{"type":"Point","coordinates":[174.73516225317425,-36.79304011446318]}},{"type":"Feature","properties":{"id":8704,"name":"Totara Heights","type":"Suburb"},"geometry":{"type":"Point","coordinates":[174.90073388276411,-37.00189983596774]}},{"type":"Feature","properties":{"id":1127,"name":"Oratia","type":"Suburb"},"geometry":{"type":"Point","coordinates":[174.61156908276814,-36.92703350528228]}},{"type":"Feature","properties":{"id":393,"name":"Forrest Hill","type":"Suburb"},"geometry":{"type":"Point","coordinates":[174.7481286913739,-36.7649033833812]}},{"type":"Feature","properties":{"id":837,"name":"Māngere East","type":"Suburb"},"geometry":{"type":"Point","coordinates":[174.82390541933606,-36.96590395463194]}},{"type":"Feature","properties":{"id":2928,"name":"Point England","type":"Suburb"},"geometry":{"type":"Point","coordinates":[174.8652489954425,-36.88361623525009]}},{"type":"Feature","properties":{"id":67,"name":"Auckland Airport","type":"Suburb"},"geometry":{"type":"Point","coordinates":[174.79102981089298,-37.00781796035479]}},{"type":"Feature","properties":{"id":140,"name":"Blockhouse Bay","type":"Suburb"},"geometry":{"type":"Point","coordinates":[174.7021916588264,-36.919368132489204]}},{"type":"Feature","properties":{"id":4119,"name":"Massey","type":"Suburb"},"geometry":{"type":"Point","coordinates":[174.60074097696895,-36.839596853218644]}},{"type":"Feature","properties":{"id":449,"name":"Goodwood Heights","type":"Suburb"},"geometry":{"type":"Point","coordinates":[174.89751046107875,-36.99419052381201]}},{"type":"Feature","properties":{"id":2959,"name":"Greenhithe","type":"Suburb"},"geometry":{"type":"Point","coordinates":[174.6867948397375,-36.770515432615966]}},{"type":"Feature","properties":{"id":4118,"name":"Whenuapai","type":"Suburb"},"geometry":{"type":"Point","coordinates":[174.6166178969449,-36.79371436462784]}},{"type":"Feature","properties":{"id":399,"name":"Freemans Bay","type":"Suburb"},"geometry":{"type":"Point","coordinates":[174.7503651161321,-36.85279567313322]}},{"type":"Feature","properties":{"id":175,"name":"Bucklands Beach","type":"Suburb"},"geometry":{"type":"Point","coordinates":[174.9084643172537,-36.87603817325798]}},{"type":"Feature","properties":{"id":1431,"name":"Rosedale","type":"Suburb"},"geometry":{"type":"Point","coordinates":[174.71558675534018,-36.74642365299318]}},{"type":"Feature","properties":{"id":161,"name":"Brookby","type":"Locality"},"geometry":{"type":"Point","coordinates":[174.99001070638909,-36.98668721262607]}}]}